{"type":"FeatureCollection","features":[{"type":"Feature","properties":{"code":"971","nom":"Guadeloupe"},"geometry":{"type":"MultiPolygon","coordinates":[[[[-61.7904,16.1668],[-61.792,16.1679],[-61.7896,16.1698],[-61.7877,16.1684],[-61.7896,16.1676],[-61.7904,16.1668]]],[[[-61.6069,15.8344],[-61.6113,15.8395],[-61.6071,15.8354],[-61.6069,15.8344]]],[[[-61.6336,15.8398],[-61.6509,15.8486],[-61.6472,15.8542],[-61.6467,15.8611],[-61.6398,15.8634],[-61.6351,15.871],[-61.6345,15.868],[-61.6231,15.8656],[-61.6241,15.8588],[-61.617,15.8585],[-61.6144,15.8553],[-61.6181,15.8515],[-61.6203,15.8554],[-61.6285,15.8423],[-61.6335,15.8402],[-61.6336,15.8398]]],[[[-61.1199,16.1672],[-61.1289,16.1695],[-61.1312,16.1724],[-61.1126,16.1745],[-61.1072,16.1722],[-61.1088,16.1686],[-61.1188,16.1678],[-61.1199,16.1672]]],[[[-61.0098,16.35],[-61.0025,16.3357],[-61.0053,16.3315],[-61.0136,16.3293],[-61.0132,16.3273],[-61.0191,16.3276],[-61.0485,16.3076],[-61.0736,16.3029],[-61.0838,16.2965],[-61.0914,16.2956],[-61.0972,16.2905],[-61.0981,16.3035],[-61.0936,16.3053],[-61.0906,16.3118],[-61.0786,16.3124],[-61.0753,16.3191],[-61.0646,16.3201],[-61.0563,16.3267],[-61.0513,16.3276],[-61.0489,16.3322],[-61.0461,16.3306],[-61.0355,16.3383],[-61.0316,16.3379],[-61.0313,16.3407],[-61.0239,16.3446],[-61.0197,16.3438],[-61.0167,16.3489],[-61.0107,16.35],[-61.0098,16.35]]],[[[-61.7777,16.364],[-61.7816,16.3669],[-61.7806,16.3704],[-61.7779,16.3682],[-61.7782,16.3652],[-61.7777,16.364]]],[[[-61.5858,15.8321],[-61.5971,15.8354],[-61.5917,15.8429],[-61.5846,15.8363],[-61.585,15.8322],[-61.5858,15.8321]]],[[[-61.5933,15.8525],[-61.6003,15.8547],[-61.6022,15.8576],[-61.6067,15.8571],[-61.6052,15.8595],[-61.6002,15.8602],[-61.5998,15.8649],[-61.5843,15.8643],[-61.5821,15.8693],[-61.5848,15.8761],[-61.5816,15.8809],[-61.5782,15.873],[-61.5756,15.875],[-61.5737,15.8836],[-61.5716,15.8826],[-61.5681,15.8787],[-61.5713,15.8722],[-61.5665,15.871],[-61.5711,15.8673],[-61.5766,15.8666],[-61.5788,15.8596],[-61.5763,15.8582],[-61.5784,15.8553],[-61.5793,15.8578],[-61.5867,15.8572],[-61.5879,15.8592],[-61.5906,15.8544],[-61.5933,15.8525]]],[[[-61.5937,15.8718],[-61.6017,15.8774],[-61.5912,15.8774],[-61.5925,15.8731],[-61.5937,15.8718]]],[[[-61.5667,15.8725],[-61.5652,15.8751],[-61.5657,15.8735],[-61.5667,15.8725]]],[[[-61.1063,16.176],[-61.114,16.1765],[-61.1039,16.1811],[-61.1059,16.1759],[-61.1063,16.176]]],[[[-61.3231,15.9496],[-61.3193,15.9536],[-61.319,15.9759],[-61.3067,15.9788],[-61.3063,15.986],[-61.3016,15.9879],[-61.2912,16.0032],[-61.2818,16.0031],[-61.2757,16.0073],[-61.2758,16.0052],[-61.2607,15.9995],[-61.2527,15.9922],[-61.2417,15.9915],[-61.2433,15.9873],[-61.24,15.9889],[-61.2397,15.9857],[-61.2331,15.9857],[-61.2305,15.9811],[-61.232,15.9778],[-61.23,15.9766],[-61.2298,15.971],[-61.2272,15.9679],[-61.2235,15.9683],[-61.2245,15.9644],[-61.2191,15.9621],[-61.2171,15.9567],[-61.2082,15.953],[-61.2006,15.9451],[-61.1952,15.9306],[-61.197,15.927],[-61.1959,15.9213],[-61.2045,15.9009],[-61.2178,15.8952],[-61.2217,15.8879],[-61.2345,15.879],[-61.2506,15.8719],[-61.2792,15.8665],[-61.2828,15.87],[-61.3023,15.8743],[-61.315,15.8805],[-61.3226,15.8861],[-61.331,15.8981],[-61.3294,15.9041],[-61.3371,15.9415],[-61.3254,15.9483],[-61.3231,15.9496]]],[[[-61.5872,16.3449],[-61.5919,16.3463],[-61.5944,16.342],[-61.597,16.3423],[-61.5903,16.3535],[-61.5789,16.349],[-61.5807,16.3453],[-61.5857,16.345],[-61.5872,16.3449]]],[[[-61.5252,16.3483],[-61.5299,16.3508],[-61.525,16.3487],[-61.5252,16.3483]]],[[[-61.5439,16.2923],[-61.5451,16.2944],[-61.5429,16.2951],[-61.5428,16.2927],[-61.5439,16.2923]]],[[[-61.5501,16.2804],[-61.5528,16.2812],[-61.5497,16.2815],[-61.5501,16.2804]]],[[[-61.5074,16.3492],[-61.5095,16.3488],[-61.5101,16.3497],[-61.5082,16.3499],[-61.5074,16.3492]]],[[[-61.5522,16.2841],[-61.5553,16.2861],[-61.5541,16.2864],[-61.5519,16.2846],[-61.5522,16.2841]]],[[[-61.5555,16.2864],[-61.5564,16.287],[-61.5552,16.288],[-61.5543,16.2867],[-61.5555,16.2864]]],[[[-61.8061,16.268],[-61.8096,16.2729],[-61.805,16.2749],[-61.8025,16.2791],[-61.8041,16.2815],[-61.8016,16.2867],[-61.8021,16.3012],[-61.7946,16.3068],[-61.8018,16.3119],[-61.8016,16.3144],[-61.7887,16.3221],[-61.7868,16.3252],[-61.7889,16.3318],[-61.7874,16.3357],[-61.7778,16.3425],[-61.7761,16.35],[-61.772,16.3496],[-61.7595,16.3557],[-61.7486,16.3549],[-61.7433,16.362],[-61.7351,16.357],[-61.7294,16.3578],[-61.7245,16.354],[-61.7208,16.3503],[-61.7211,16.3474],[-61.7157,16.3445],[-61.717,16.3431],[-61.7138,16.3373],[-61.694,16.3346],[-61.6867,16.3299],[-61.6853,16.3246],[-61.6814,16.3248],[-61.6812,16.3275],[-61.6786,16.3282],[-61.6726,16.3246],[-61.6712,16.3179],[-61.6504,16.321],[-61.6409,16.3158],[-61.6446,16.3129],[-61.6435,16.3088],[-61.6371,16.3092],[-61.6257,16.3016],[-61.6023,16.3034],[-61.6023,16.2993],[-61.6106,16.2937],[-61.6144,16.2832],[-61.6207,16.2833],[-61.6167,16.2875],[-61.6208,16.2922],[-61.619,16.2872],[-61.6269,16.2805],[-61.6243,16.2754],[-61.6118,16.2795],[-61.6149,16.27],[-61.6135,16.2676],[-61.606,16.2696],[-61.5986,16.2817],[-61.597,16.2748],[-61.6007,16.2689],[-61.5974,16.266],[-61.5842,16.2701],[-61.5792,16.2789],[-61.5796,16.2838],[-61.5761,16.2851],[-61.5703,16.2815],[-61.5648,16.2866],[-61.5619,16.2834],[-61.5587,16.2864],[-61.5551,16.2847],[-61.5532,16.2786],[-61.5556,16.2765],[-61.5596,16.2803],[-61.5606,16.2775],[-61.5561,16.273],[-61.5532,16.2782],[-61.5495,16.2776],[-61.5472,16.2561],[-61.5531,16.2496],[-61.5485,16.2423],[-61.5506,16.2385],[-61.5497,16.2327],[-61.5417,16.2314],[-61.5469,16.2282],[-61.5446,16.2253],[-61.5477,16.2233],[-61.5517,16.2242],[-61.5589,16.2353],[-61.5624,16.234],[-61.5622,16.232],[-61.5667,16.2336],[-61.5672,16.236],[-61.5749,16.2344],[-61.5799,16.2369],[-61.5844,16.233],[-61.5882,16.2204],[-61.5846,16.2142],[-61.5876,16.21],[-61.5832,16.2048],[-61.5904,16.1932],[-61.5859,16.1806],[-61.5802,16.179],[-61.5796,16.1732],[-61.585,16.1675],[-61.5817,16.1557],[-61.5755,16.1536],[-61.574,16.1504],[-61.5777,16.1429],[-61.5729,16.1366],[-61.5631,16.1343],[-61.5609,16.1311],[-61.5611,16.1283],[-61.5699,16.1211],[-61.5704,16.1139],[-61.5672,16.1085],[-61.5632,16.1076],[-61.5636,16.1034],[-61.5609,16.1016],[-61.5613,16.0963],[-61.5588,16.0928],[-61.561,16.0835],[-61.5591,16.0783],[-61.5608,16.0632],[-61.5553,16.0532],[-61.5576,16.0542],[-61.5564,16.0512],[-61.564,16.0432],[-61.5649,16.0337],[-61.5727,16.022],[-61.5797,16.0193],[-61.5844,16.0123],[-61.6026,16],[-61.6081,15.9922],[-61.6124,15.9913],[-61.6144,15.9821],[-61.6201,15.9771],[-61.6192,15.9717],[-61.6272,15.972],[-61.6299,15.9674],[-61.6346,15.9662],[-61.641,15.9682],[-61.6444,15.9669],[-61.6485,15.9697],[-61.6593,15.9602],[-61.6627,15.9644],[-61.6691,15.962],[-61.6759,15.9526],[-61.6803,15.9505],[-61.7,15.9466],[-61.7077,15.9489],[-61.7099,15.9546],[-61.7085,15.965],[-61.7151,15.9826],[-61.7258,15.9879],[-61.7458,16.0094],[-61.751,16.0345],[-61.7647,16.0491],[-61.7695,16.0587],[-61.7673,16.0841],[-61.7691,16.0864],[-61.7666,16.0892],[-61.7728,16.0911],[-61.7704,16.0954],[-61.7736,16.098],[-61.7719,16.1017],[-61.7746,16.1035],[-61.7727,16.1058],[-61.7739,16.125],[-61.7698,16.1309],[-61.7715,16.1358],[-61.78,16.1402],[-61.7751,16.1489],[-61.7759,16.1709],[-61.7841,16.1762],[-61.7823,16.1877],[-61.7877,16.1952],[-61.7823,16.2144],[-61.7864,16.2272],[-61.7922,16.2358],[-61.8015,16.243],[-61.8069,16.2662],[-61.8061,16.268]]],[[[-61.5305,16.2178],[-61.5328,16.2213],[-61.5255,16.2171],[-61.5234,16.2175],[-61.5233,16.2212],[-61.5288,16.2195],[-61.5299,16.2209],[-61.5273,16.2229],[-61.5327,16.2247],[-61.5298,16.227],[-61.5336,16.2292],[-61.5333,16.2342],[-61.5397,16.237],[-61.5412,16.2438],[-61.5497,16.2517],[-61.5465,16.2541],[-61.5489,16.2749],[-61.5474,16.2799],[-61.5513,16.2874],[-61.5545,16.2881],[-61.5519,16.2891],[-61.5506,16.287],[-61.5456,16.2924],[-61.5411,16.2896],[-61.5423,16.2958],[-61.5456,16.2963],[-61.547,16.3014],[-61.5452,16.3041],[-61.5437,16.3008],[-61.5373,16.3064],[-61.5335,16.3163],[-61.5359,16.3188],[-61.5334,16.3259],[-61.5355,16.3311],[-61.5282,16.3373],[-61.5296,16.3392],[-61.5228,16.3455],[-61.5081,16.3421],[-61.5073,16.3453],[-61.5044,16.3453],[-61.507,16.3481],[-61.5058,16.3503],[-61.504,16.3491],[-61.5041,16.3511],[-61.4937,16.3541],[-61.4995,16.3551],[-61.496,16.361],[-61.5014,16.3642],[-61.4971,16.3666],[-61.495,16.3767],[-61.5058,16.3889],[-61.5092,16.3856],[-61.5123,16.3895],[-61.5258,16.3947],[-61.5332,16.4147],[-61.5334,16.4244],[-61.5374,16.4307],[-61.5373,16.4357],[-61.5415,16.4376],[-61.5363,16.4477],[-61.5354,16.455],[-61.5233,16.4634],[-61.5181,16.4707],[-61.5081,16.474],[-61.5041,16.4842],[-61.4861,16.4915],[-61.4801,16.4975],[-61.4735,16.5109],[-61.4669,16.5105],[-61.4648,16.5143],[-61.4667,16.5069],[-61.4614,16.5052],[-61.4633,16.5019],[-61.4614,16.4995],[-61.4557,16.4999],[-61.4525,16.4976],[-61.4436,16.5002],[-61.4414,16.4886],[-61.4389,16.4906],[-61.4337,16.4875],[-61.4332,16.484],[-61.4285,16.4824],[-61.4246,16.4761],[-61.42,16.4764],[-61.4172,16.4714],[-61.4124,16.4707],[-61.41,16.4674],[-61.4109,16.4612],[-61.4078,16.4565],[-61.4073,16.448],[-61.4016,16.4426],[-61.3979,16.424],[-61.3984,16.4178],[-61.4021,16.4159],[-61.4014,16.4079],[-61.4054,16.407],[-61.4036,16.4025],[-61.4054,16.3845],[-61.3927,16.3602],[-61.3795,16.3437],[-61.3676,16.3388],[-61.3685,16.3355],[-61.3652,16.3378],[-61.3522,16.3336],[-61.3454,16.3354],[-61.3417,16.3297],[-61.3404,16.3333],[-61.3344,16.3341],[-61.3214,16.3306],[-61.3131,16.3319],[-61.3052,16.3253],[-61.297,16.3278],[-61.297,16.3229],[-61.287,16.3222],[-61.2818,16.3166],[-61.2773,16.3168],[-61.2755,16.313],[-61.2728,16.3137],[-61.2662,16.3091],[-61.2664,16.3051],[-61.2595,16.3043],[-61.2433,16.2732],[-61.2336,16.2672],[-61.2204,16.2641],[-61.2068,16.2554],[-61.1994,16.2548],[-61.1994,16.2581],[-61.1945,16.2543],[-61.1863,16.254],[-61.1793,16.2477],[-61.1762,16.2488],[-61.1737,16.2448],[-61.1767,16.2422],[-61.1912,16.2501],[-61.2038,16.2497],[-61.2185,16.253],[-61.2557,16.256],[-61.2644,16.2513],[-61.2681,16.2532],[-61.2658,16.2502],[-61.2786,16.2506],[-61.2945,16.2432],[-61.3175,16.2403],[-61.3233,16.2439],[-61.3244,16.2411],[-61.3386,16.242],[-61.3477,16.2367],[-61.3705,16.2322],[-61.372,16.2282],[-61.3794,16.2222],[-61.3903,16.2236],[-61.394,16.2172],[-61.3979,16.2195],[-61.4033,16.2181],[-61.4068,16.2132],[-61.4245,16.2078],[-61.4268,16.2104],[-61.4397,16.2085],[-61.444,16.2026],[-61.4584,16.2011],[-61.4642,16.1968],[-61.4856,16.205],[-61.5074,16.2061],[-61.5101,16.2159],[-61.5223,16.2127],[-61.53,16.2165],[-61.5305,16.2178]]],[[[-61.5372,16.2131],[-61.5428,16.2139],[-61.5427,16.2184],[-61.5347,16.2134],[-61.5372,16.2131]]],[[[-61.4912,16.198],[-61.4921,16.1987],[-61.4918,16.2001],[-61.4906,16.1992],[-61.4912,16.198]]]]}},{"type":"Feature","properties":{"code":"972","nom":"Martinique"},"geometry":{"type":"MultiPolygon","coordinates":[[[[-60.8673,14.3887],[-60.8684,14.3926],[-60.8668,14.389],[-60.8673,14.3887]]],[[[-61.0391,14.4419],[-61.0403,14.4444],[-61.0381,14.4424],[-61.0391,14.4419]]],[[[-60.8272,14.4279],[-60.8304,14.4306],[-60.826,14.4329],[-60.827,14.4284],[-60.8272,14.4279]]],[[[-60.8321,14.4161],[-60.8323,14.4171],[-60.8312,14.4183],[-60.8312,14.4167],[-60.8321,14.4161]]],[[[-60.8333,14.4102],[-60.8343,14.4109],[-60.8325,14.4115],[-60.832,14.4105],[-60.8333,14.4102]]],[[[-60.9788,14.474],[-60.9802,14.4763],[-60.9786,14.4775],[-60.9787,14.4747],[-60.9788,14.474]]],[[[-60.8385,14.5664],[-60.8358,14.5704],[-60.8343,14.5697],[-60.8361,14.5673],[-60.8385,14.5664]]],[[[-60.9885,14.7862],[-60.9907,14.7879],[-60.9873,14.7879],[-60.9885,14.7862]]],[[[-60.8746,14.4505],[-60.8753,14.4511],[-60.875,14.4521],[-60.874,14.4518],[-60.8746,14.4505]]],[[[-60.8621,14.608],[-60.8528,14.6144],[-60.8496,14.6105],[-60.8568,14.6111],[-60.8611,14.6087],[-60.8621,14.608]]],[[[-60.8486,14.6234],[-60.8503,14.6252],[-60.8482,14.627],[-60.8471,14.6241],[-60.8486,14.6234]]],[[[-60.8637,14.6181],[-60.8582,14.622],[-60.8603,14.6188],[-60.8637,14.6181]]],[[[-60.853,14.6293],[-60.8518,14.6268],[-60.8539,14.626],[-60.8537,14.6282],[-60.853,14.6293]]],[[[-60.8646,14.605],[-60.863,14.607],[-60.8635,14.6051],[-60.8646,14.605]]],[[[-61.0208,14.5466],[-61.0216,14.549],[-61.0165,14.5502],[-61.0196,14.5468],[-61.0208,14.5466]]],[[[-61.0795,14.5433],[-61.0794,14.5453],[-61.0785,14.5436],[-61.0795,14.5433]]],[[[-60.9635,14.7714],[-60.9646,14.7744],[-60.9625,14.7716],[-60.9635,14.7714]]],[[[-60.8787,14.7546],[-60.88,14.7574],[-60.8785,14.7548],[-60.8787,14.7546]]],[[[-60.9329,14.7302],[-60.9342,14.7312],[-60.9331,14.7315],[-60.9324,14.731],[-60.9329,14.7302]]],[[[-60.8744,14.7757],[-60.876,14.7758],[-60.8756,14.7769],[-60.8743,14.7771],[-60.8744,14.7757]]],[[[-61.1175,14.6276],[-61.1303,14.633],[-61.1357,14.6329],[-61.1386,14.6372],[-61.1381,14.641],[-61.1446,14.6465],[-61.1507,14.6483],[-61.153,14.6553],[-61.1568,14.6565],[-61.159,14.6642],[-61.1801,14.6944],[-61.1848,14.7085],[-61.1769,14.7378],[-61.1773,14.7462],[-61.1854,14.7573],[-61.1984,14.7667],[-61.2054,14.7799],[-61.2154,14.7828],[-61.2225,14.798],[-61.2272,14.8026],[-61.2293,14.8221],[-61.2264,14.8313],[-61.2192,14.8456],[-61.2147,14.8479],[-61.2128,14.8545],[-61.2066,14.8617],[-61.1877,14.8683],[-61.1797,14.875],[-61.1598,14.8781],[-61.1388,14.8778],[-61.1349,14.8748],[-61.127,14.8745],[-61.1203,14.8702],[-61.114,14.8704],[-61.0979,14.8632],[-61.0898,14.8537],[-61.0813,14.8516],[-61.0775,14.8465],[-61.071,14.8435],[-61.0645,14.8434],[-61.0573,14.8344],[-61.0497,14.8329],[-61.0426,14.837],[-61.0381,14.8305],[-61.0292,14.8304],[-61.0317,14.8233],[-61.0227,14.8221],[-61.0187,14.8094],[-61.0113,14.8071],[-61.0068,14.8114],[-61.007,14.8085],[-61.0019,14.8089],[-61.0043,14.7982],[-60.9985,14.7943],[-60.9972,14.7877],[-60.9908,14.7858],[-60.9874,14.778],[-60.9812,14.7795],[-60.9796,14.7776],[-60.9794,14.7755],[-60.9828,14.7744],[-60.9787,14.7691],[-60.9743,14.7681],[-60.9733,14.7632],[-60.9679,14.7607],[-60.9674,14.7526],[-60.9651,14.7485],[-60.9617,14.7479],[-60.9635,14.7454],[-60.9626,14.739],[-60.9581,14.7366],[-60.9544,14.738],[-60.9527,14.7478],[-60.9479,14.7537],[-60.9346,14.7618],[-60.9253,14.7635],[-60.9205,14.7583],[-60.9122,14.7625],[-60.9092,14.7689],[-60.9078,14.7655],[-60.8974,14.7701],[-60.892,14.7738],[-60.8884,14.7802],[-60.8862,14.7804],[-60.8851,14.7765],[-60.8746,14.7748],[-60.8768,14.7737],[-60.8728,14.7722],[-60.8747,14.7698],[-60.873,14.7682],[-60.8761,14.7655],[-60.8727,14.7582],[-60.8787,14.7579],[-60.8837,14.7677],[-60.8861,14.7655],[-60.8915,14.7668],[-60.8933,14.7616],[-60.8968,14.7612],[-60.8969,14.7585],[-60.8885,14.7533],[-60.8909,14.7478],[-60.8947,14.7492],[-60.8993,14.7438],[-60.8907,14.74],[-60.8918,14.7357],[-60.8963,14.7366],[-60.8956,14.7335],[-60.903,14.7371],[-60.9094,14.7349],[-60.9119,14.7437],[-60.9259,14.7508],[-60.9309,14.7492],[-60.9361,14.7506],[-60.9407,14.7429],[-60.9431,14.7433],[-60.9444,14.7376],[-60.9376,14.7343],[-60.9444,14.7335],[-60.9462,14.7281],[-60.9447,14.7228],[-60.9399,14.7214],[-60.939,14.7176],[-60.9345,14.7155],[-60.9306,14.7218],[-60.9254,14.7215],[-60.9291,14.7188],[-60.9287,14.7152],[-60.9339,14.7118],[-60.9331,14.7077],[-60.9246,14.7082],[-60.9193,14.7117],[-60.9182,14.716],[-60.9139,14.7162],[-60.9156,14.7097],[-60.9132,14.7073],[-60.9153,14.7057],[-60.9142,14.7029],[-60.9088,14.6995],[-60.9025,14.702],[-60.9034,14.6998],[-60.9007,14.6988],[-60.9022,14.6954],[-60.9068,14.6959],[-60.9114,14.6879],[-60.913,14.6917],[-60.9285,14.6874],[-60.9292,14.6831],[-60.9249,14.6785],[-60.9299,14.6787],[-60.9366,14.6836],[-60.9383,14.6749],[-60.9431,14.6724],[-60.943,14.6693],[-60.9395,14.6651],[-60.9353,14.6647],[-60.9333,14.6577],[-60.929,14.6529],[-60.9198,14.6545],[-60.9168,14.6629],[-60.9119,14.666],[-60.909,14.6618],[-60.9077,14.6636],[-60.9059,14.6624],[-60.9061,14.6666],[-60.9035,14.6662],[-60.9021,14.6621],[-60.9002,14.6651],[-60.897,14.6653],[-60.8994,14.6612],[-60.895,14.6613],[-60.8937,14.6589],[-60.8909,14.6595],[-60.8905,14.6656],[-60.883,14.6655],[-60.8859,14.6526],[-60.8888,14.6566],[-60.89,14.6507],[-60.8978,14.6488],[-60.9029,14.6528],[-60.9019,14.6496],[-60.906,14.6482],[-60.8958,14.6412],[-60.8886,14.6413],[-60.8951,14.6391],[-60.8937,14.6349],[-60.8909,14.636],[-60.8909,14.6314],[-60.895,14.6315],[-60.8948,14.6281],[-60.8984,14.6286],[-60.8972,14.6251],[-60.8991,14.6214],[-60.8891,14.6193],[-60.8873,14.6215],[-60.8869,14.6155],[-60.8843,14.6192],[-60.8809,14.6178],[-60.8772,14.6215],[-60.8733,14.6188],[-60.8702,14.6195],[-60.8694,14.6173],[-60.876,14.616],[-60.878,14.6123],[-60.8754,14.6081],[-60.87,14.6059],[-60.868,14.6013],[-60.8721,14.6001],[-60.8725,14.5963],[-60.8681,14.5936],[-60.8676,14.5904],[-60.8586,14.5893],[-60.8519,14.5947],[-60.8519,14.5903],[-60.8484,14.5877],[-60.8505,14.5855],[-60.8463,14.5846],[-60.8462,14.5826],[-60.8516,14.5828],[-60.8524,14.5801],[-60.8423,14.579],[-60.8536,14.5755],[-60.8516,14.5685],[-60.843,14.5711],[-60.849,14.5666],[-60.8483,14.5647],[-60.8409,14.5669],[-60.8453,14.5594],[-60.8413,14.5596],[-60.8302,14.5696],[-60.8255,14.5684],[-60.8386,14.55],[-60.8361,14.5462],[-60.8295,14.5431],[-60.8266,14.5374],[-60.8286,14.5345],[-60.8344,14.5356],[-60.8372,14.5335],[-60.833,14.5314],[-60.8268,14.5336],[-60.8242,14.5295],[-60.8261,14.5214],[-60.8291,14.5241],[-60.8347,14.5227],[-60.8333,14.5176],[-60.8363,14.5165],[-60.8369,14.5117],[-60.8347,14.5099],[-60.8285,14.515],[-60.8235,14.5131],[-60.8234,14.4959],[-60.8212,14.4929],[-60.8177,14.4951],[-60.8106,14.4798],[-60.8141,14.4734],[-60.8188,14.4716],[-60.8202,14.4765],[-60.8237,14.4718],[-60.8187,14.4691],[-60.814,14.4604],[-60.8095,14.4602],[-60.816,14.4599],[-60.8236,14.4525],[-60.8225,14.4464],[-60.8252,14.4374],[-60.834,14.433],[-60.8327,14.43],[-60.8355,14.4263],[-60.8347,14.4229],[-60.8405,14.4223],[-60.8426,14.4271],[-60.8489,14.4271],[-60.8496,14.4217],[-60.8472,14.4226],[-60.8474,14.4195],[-60.8432,14.4205],[-60.8452,14.4158],[-60.838,14.4146],[-60.8387,14.4106],[-60.8458,14.4134],[-60.8547,14.4043],[-60.8556,14.3973],[-60.8656,14.3968],[-60.8688,14.3946],[-60.8781,14.3971],[-60.8767,14.4009],[-60.8845,14.4046],[-60.8872,14.4098],[-60.8854,14.4136],[-60.8932,14.4192],[-60.8863,14.4265],[-60.8799,14.4384],[-60.8845,14.4476],[-60.8838,14.4519],[-60.8778,14.4462],[-60.8761,14.4489],[-60.8722,14.4483],[-60.8728,14.4569],[-60.8644,14.4549],[-60.8674,14.4584],[-60.8622,14.4629],[-60.8661,14.4705],[-60.8721,14.4691],[-60.8766,14.4721],[-60.878,14.4675],[-60.883,14.4662],[-60.8907,14.4587],[-60.8926,14.4526],[-60.899,14.4477],[-60.8999,14.4516],[-60.9121,14.462],[-60.9101,14.4689],[-60.916,14.4685],[-60.9174,14.4717],[-60.9188,14.4672],[-60.9342,14.4624],[-60.9458,14.4666],[-60.9563,14.4654],[-60.9645,14.4729],[-60.9695,14.4722],[-60.9693,14.4702],[-60.9745,14.468],[-60.9784,14.4712],[-60.9759,14.4756],[-60.9796,14.4815],[-60.9826,14.4823],[-60.9849,14.4728],[-60.9918,14.4788],[-60.9896,14.468],[-60.9916,14.4663],[-61.0004,14.4707],[-61.0038,14.4788],[-61.0079,14.4741],[-61.0063,14.471],[-61.0188,14.4807],[-61.0325,14.4771],[-61.0441,14.471],[-61.0486,14.4585],[-61.0561,14.4539],[-61.0652,14.4577],[-61.0704,14.4685],[-61.0799,14.4687],[-61.083,14.4738],[-61.0792,14.4796],[-61.0799,14.4894],[-61.0827,14.492],[-61.0908,14.4926],[-61.0899,14.4976],[-61.0842,14.4989],[-61.0854,14.5053],[-61.0901,14.5077],[-61.0965,14.5064],[-61.1012,14.5082],[-61.0968,14.5137],[-61.0974,14.5186],[-61.0945,14.5246],[-61.0901,14.5255],[-61.0899,14.5283],[-61.0878,14.5271],[-61.0877,14.5341],[-61.081,14.5369],[-61.0766,14.5422],[-61.0677,14.5398],[-61.0645,14.5419],[-61.0613,14.5506],[-61.0553,14.5509],[-61.053,14.5534],[-61.0544,14.5567],[-61.0522,14.5624],[-61.0512,14.5572],[-61.0488,14.5596],[-61.0517,14.5514],[-61.0448,14.5523],[-61.0385,14.5568],[-61.0373,14.55],[-61.0444,14.5466],[-61.0407,14.5414],[-61.0301,14.5408],[-61.0319,14.5367],[-61.0278,14.5371],[-61.0275,14.535],[-61.023,14.5398],[-61.0176,14.5389],[-61.0168,14.5343],[-61.0138,14.5351],[-61.0084,14.5421],[-61.0057,14.5406],[-61.0073,14.5361],[-61.0005,14.5445],[-60.9937,14.5466],[-60.997,14.5514],[-60.9934,14.5518],[-60.9906,14.5473],[-60.9898,14.5502],[-60.9919,14.554],[-60.9956,14.5549],[-60.9949,14.5588],[-60.9976,14.5614],[-61.0011,14.5595],[-61.0039,14.562],[-61.0113,14.5611],[-61.0109,14.5675],[-61.0141,14.5706],[-61.0099,14.5783],[-61.0143,14.5787],[-61.0158,14.583],[-61.0243,14.5848],[-61.0236,14.5919],[-61.0193,14.5924],[-61.0164,14.5957],[-61.0197,14.6008],[-61.0138,14.6017],[-61.0217,14.6033],[-61.0189,14.6117],[-61.0241,14.613],[-61.0316,14.6059],[-61.0397,14.6065],[-61.0369,14.5926],[-61.041,14.5962],[-61.0466,14.5943],[-61.0491,14.5985],[-61.0602,14.5951],[-61.0575,14.6036],[-61.0592,14.6041],[-61.0613,14.6001],[-61.0615,14.6019],[-61.0661,14.6026],[-61.0661,14.5971],[-61.0675,14.6014],[-61.0708,14.6029],[-61.0904,14.5986],[-61.1047,14.6191],[-61.1112,14.6256],[-61.1165,14.6272],[-61.1175,14.6276]]],[[[-60.889,14.6896],[-60.8987,14.6964],[-60.8873,14.6974],[-60.8792,14.6926],[-60.8876,14.6924],[-60.8886,14.6903],[-60.889,14.6896]]],[[[-60.8876,14.6297],[-60.8889,14.6349],[-60.8848,14.6325],[-60.8864,14.631],[-60.8876,14.6297]]],[[[-60.8825,14.686],[-60.8843,14.6905],[-60.8821,14.6866],[-60.8825,14.686]]],[[[-60.9108,14.6844],[-60.9091,14.6874],[-60.9098,14.6845],[-60.9108,14.6844]]],[[[-60.9,14.6849],[-60.9016,14.687],[-60.8998,14.6857],[-60.9,14.6849]]],[[[-60.8831,14.6694],[-60.8839,14.671],[-60.8816,14.67],[-60.8831,14.6694]]]]}},{"type":"Feature","properties":{"code":"973","nom":"Guyane"},"geometry":{"type":"MultiPolygon","coordinates":[[[[-53.8705,5.7449],[-53.8646,5.743],[-53.8779,5.7369],[-53.8838,5.7365],[-53.9017,5.7422],[-53.9026,5.7466],[-53.8791,5.747],[-53.8705,5.7449]]],[[[-52.1797,4.8909],[-52.1816,4.8886],[-52.1902,4.8925],[-52.18,4.8939],[-52.1797,4.8909]]],[[[-52.2032,4.9251],[-52.2062,4.9293],[-52.201,4.9312],[-52.2032,4.9251]]],[[[-53.4694,5.5653],[-53.4692,5.5676],[-53.4564,5.5686],[-53.4031,5.5637],[-53.3684,5.5524],[-53.3306,5.5448],[-53.3183,5.5387],[-53.2802,5.5431],[-53.2656,5.5357],[-53.2552,5.5222],[-53.2508,5.5212],[-53.2621,5.538],[-53.275,5.5462],[-53.2933,5.5472],[-53.2985,5.5491],[-53.3006,5.5529],[-53.2939,5.5599],[-53.2916,5.5573],[-53.2841,5.5597],[-53.2804,5.5636],[-53.2747,5.5632],[-53.2709,5.5589],[-53.2694,5.5523],[-53.2614,5.5485],[-53.248,5.5456],[-53.2453,5.543],[-53.2342,5.5425],[-53.188,5.5252],[-53.1721,5.523],[-53.1314,5.5082],[-53.1256,5.5],[-53.1155,5.4927],[-53.0725,5.4683],[-53.0343,5.4593],[-53.0201,5.4581],[-53.0144,5.4554],[-53.0032,5.4387],[-52.9956,5.432],[-52.9918,5.4345],[-53.0031,5.4558],[-52.9969,5.4597],[-52.9833,5.4541],[-52.9709,5.4564],[-52.9649,5.4519],[-52.9569,5.4504],[-52.9564,5.4556],[-52.9531,5.4552],[-52.9408,5.4497],[-52.9401,5.4453],[-52.9347,5.446],[-52.9271,5.4385],[-52.9243,5.4297],[-52.9128,5.4244],[-52.9093,5.4192],[-52.9049,5.419],[-52.8963,5.4097],[-52.873,5.393],[-52.8697,5.3822],[-52.8659,5.3845],[-52.8551,5.3776],[-52.847,5.3601],[-52.8433,5.3598],[-52.8345,5.3474],[-52.8317,5.3333],[-52.8249,5.3275],[-52.8196,5.3282],[-52.812,5.324],[-52.7965,5.3107],[-52.7882,5.3075],[-52.7845,5.297],[-52.7762,5.2866],[-52.7472,5.258],[-52.7339,5.2487],[-52.7228,5.2369],[-52.6664,5.2003],[-52.6563,5.1853],[-52.6374,5.1662],[-52.6283,5.1628],[-52.6264,5.1581],[-52.63,5.1514],[-52.6277,5.1463],[-52.6072,5.1354],[-52.576,5.1065],[-52.5701,5.1075],[-52.5611,5.1037],[-52.5564,5.107],[-52.5562,5.1001],[-52.5495,5.1007],[-52.5472,5.0948],[-52.5567,5.0961],[-52.5523,5.0878],[-52.5452,5.0877],[-52.5444,5.0915],[-52.5382,5.0885],[-52.525,5.0752],[-52.5226,5.0759],[-52.5134,5.0677],[-52.507,5.057],[-52.5013,5.0555],[-52.493,5.0474],[-52.4902,5.0406],[-52.4682,5.0225],[-52.453,5.0057],[-52.4393,4.9961],[-52.4365,4.9914],[-52.4298,4.9897],[-52.4251,4.9832],[-52.4164,4.9818],[-52.4145,4.9724],[-52.4021,4.9645],[-52.3926,4.9518],[-52.3905,4.9453],[-52.3647,4.9207],[-52.3559,4.9176],[-52.3343,4.9314],[-52.3384,4.937],[-52.3355,4.9427],[-52.3192,4.9439],[-52.3129,4.9495],[-52.3023,4.9513],[-52.2935,4.9406],[-52.2891,4.9404],[-52.2865,4.9428],[-52.283,4.9394],[-52.2816,4.9326],[-52.2631,4.9142],[-52.2588,4.9135],[-52.2576,4.9089],[-52.262,4.9094],[-52.2635,4.9068],[-52.2628,4.8999],[-52.2463,4.8873],[-52.2437,4.8779],[-52.2291,4.8596],[-52.2102,4.8586],[-52.2011,4.8513],[-52.1932,4.8349],[-52.1879,4.8328],[-52.1887,4.8284],[-52.1859,4.8216],[-52.1782,4.8228],[-52.1697,4.8169],[-52.16,4.8087],[-52.1457,4.7909],[-52.1396,4.7902],[-52.1394,4.7969],[-52.1302,4.7942],[-52.1223,4.7879],[-52.1186,4.7893],[-52.11,4.7848],[-52.105,4.7743],[-52.0874,4.7678],[-52.075,4.7577],[-52.0744,4.7529],[-52.0512,4.7413],[-52.0319,4.7281],[-52.0235,4.7163],[-52.0221,4.7193],[-52.0179,4.7184],[-52.0062,4.7018],[-51.9161,4.6688],[-51.9135,4.6729],[-51.9037,4.6766],[-51.8772,4.672],[-51.8618,4.6721],[-51.8621,4.6698],[-51.8361,4.6543],[-51.8233,4.6357],[-51.8106,4.6316],[-51.813,4.6283],[-51.7995,4.6147],[-51.7897,4.5907],[-51.7908,4.5874],[-51.7849,4.5767],[-51.7855,4.5639],[-51.7813,4.5525],[-51.7828,4.5468],[-51.7751,4.5206],[-51.7758,4.5111],[-51.7726,4.4986],[-51.7766,4.4902],[-51.7699,4.4707],[-51.7499,4.4474],[-51.7475,4.439],[-51.7523,4.4375],[-51.7517,4.4295],[-51.7548,4.4254],[-51.7524,4.4182],[-51.7467,4.4161],[-51.7423,4.4126],[-51.7406,4.4075],[-51.7272,4.3977],[-51.7146,4.3921],[-51.7119,4.3881],[-51.7028,4.3899],[-51.6996,4.3962],[-51.6923,4.3951],[-51.6936,4.3822],[-51.7017,4.3816],[-51.7077,4.3756],[-51.7112,4.3648],[-51.7182,4.3572],[-51.7192,4.3528],[-51.7184,4.3404],[-51.7105,4.3122],[-51.7013,4.294],[-51.6796,4.2657],[-51.68,4.2614],[-51.6759,4.2538],[-51.6611,4.2439],[-51.6574,4.2331],[-51.6609,4.2266],[-51.6511,4.2236],[-51.6399,4.2117],[-51.6348,4.2007],[-51.6191,4.2011],[-51.6263,4.1951],[-51.635,4.1764],[-51.6375,4.1333],[-51.6477,4.0795],[-51.6561,4.0539],[-51.6757,4.0361],[-51.7022,4.0244],[-51.7087,4.018],[-51.7457,4.0015],[-51.7758,3.9765],[-51.7823,3.9641],[-51.7832,3.9465],[-51.7803,3.941],[-51.7826,3.9207],[-51.7987,3.887],[-51.8138,3.8727],[-51.822,3.8683],[-51.8235,3.8586],[-51.8378,3.85],[-51.8564,3.8327],[-51.874,3.8032],[-51.8841,3.8016],[-51.886,3.7947],[-51.9008,3.8002],[-51.9047,3.7984],[-51.9044,3.7942],[-51.896,3.7889],[-51.8981,3.7839],[-51.9125,3.7796],[-51.9188,3.7816],[-51.9213,3.7784],[-51.9207,3.7743],[-51.9263,3.7665],[-51.9221,3.7619],[-51.9202,3.7512],[-51.9161,3.7456],[-51.9202,3.7373],[-51.9189,3.7316],[-51.9217,3.7243],[-51.9265,3.7221],[-51.9325,3.7233],[-51.9356,3.7194],[-51.9493,3.7225],[-51.9558,3.7204],[-51.9565,3.7151],[-51.9726,3.7055],[-51.9777,3.6853],[-51.9864,3.6726],[-51.9885,3.6606],[-51.9872,3.6531],[-51.9935,3.6429],[-51.9891,3.6351],[-51.9883,3.6277],[-52.0026,3.6092],[-52.0198,3.5931],[-52.0604,3.5197],[-52.0731,3.5156],[-52.0735,3.5112],[-52.0705,3.5083],[-52.0736,3.4998],[-52.0802,3.4923],[-52.0868,3.4896],[-52.094,3.475],[-52.0952,3.4618],[-52.1087,3.451],[-52.114,3.4343],[-52.1172,3.4332],[-52.1293,3.4128],[-52.1625,3.3509],[-52.174,3.3375],[-52.1737,3.332],[-52.1867,3.3201],[-52.1926,3.3077],[-52.1891,3.302],[-52.1908,3.2967],[-52.2031,3.2875],[-52.2336,3.2407],[-52.2427,3.2374],[-52.247,3.2416],[-52.2491,3.2503],[-52.2598,3.2531],[-52.2624,3.2521],[-52.2639,3.245],[-52.2745,3.2359],[-52.2925,3.2264],[-52.2954,3.2123],[-52.3029,3.1991],[-52.2993,3.1782],[-52.3027,3.1729],[-52.3125,3.1752],[-52.321,3.1704],[-52.3296,3.1719],[-52.3294,3.1662],[-52.3357,3.1508],[-52.3408,3.1444],[-52.3314,3.1385],[-52.3344,3.1345],[-52.3433,3.1344],[-52.3463,3.1364],[-52.3529,3.128],[-52.3517,3.1235],[-52.3458,3.1201],[-52.3392,3.1209],[-52.3386,3.1168],[-52.3452,3.1081],[-52.3455,3.0977],[-52.3259,3.0778],[-52.3277,3.0713],[-52.3455,3.0424],[-52.3539,3.0215],[-52.3621,3.0171],[-52.3664,2.9953],[-52.3711,2.9885],[-52.3684,2.9838],[-52.3706,2.976],[-52.3831,2.9505],[-52.3923,2.9478],[-52.3934,2.9446],[-52.3897,2.9404],[-52.3951,2.9278],[-52.3904,2.9244],[-52.3875,2.9175],[-52.3768,2.9196],[-52.3793,2.913],[-52.3901,2.8982],[-52.401,2.8969],[-52.4056,2.9009],[-52.4103,2.8935],[-52.4199,2.8932],[-52.4226,2.8903],[-52.4356,2.8637],[-52.445,2.8501],[-52.4562,2.8216],[-52.4734,2.7939],[-52.475,2.7848],[-52.4778,2.7818],[-52.4759,2.7631],[-52.4815,2.7613],[-52.4831,2.7579],[-52.479,2.7531],[-52.4884,2.7335],[-52.4997,2.722],[-52.4998,2.7169],[-52.5074,2.7026],[-52.5072,2.6979],[-52.5138,2.6927],[-52.5203,2.6823],[-52.5196,2.6761],[-52.5276,2.6634],[-52.526,2.6593],[-52.5293,2.6516],[-52.5334,2.6501],[-52.5421,2.654],[-52.5504,2.6489],[-52.5499,2.6461],[-52.5552,2.6403],[-52.5513,2.6313],[-52.5455,2.6309],[-52.5423,2.6225],[-52.5446,2.6153],[-52.5478,2.6146],[-52.5499,2.6109],[-52.536,2.6034],[-52.5315,2.598],[-52.5277,2.581],[-52.5339,2.5749],[-52.538,2.5665],[-52.5369,2.5586],[-52.5468,2.5622],[-52.5513,2.5609],[-52.5612,2.5503],[-52.5545,2.5317],[-52.5498,2.532],[-52.5525,2.5267],[-52.5517,2.5209],[-52.5652,2.5163],[-52.5887,2.4924],[-52.5872,2.4895],[-52.5906,2.487],[-52.5938,2.4779],[-52.5976,2.4753],[-52.602,2.4768],[-52.618,2.4752],[-52.6217,2.4697],[-52.6216,2.4621],[-52.6113,2.4555],[-52.6103,2.4525],[-52.6173,2.4452],[-52.6367,2.4447],[-52.6366,2.4405],[-52.6464,2.4321],[-52.6435,2.4256],[-52.6447,2.4183],[-52.6573,2.4035],[-52.6584,2.3992],[-52.6542,2.3957],[-52.6606,2.374],[-52.6685,2.3729],[-52.6702,2.3697],[-52.6802,2.3706],[-52.7105,2.3586],[-52.719,2.35],[-52.7168,2.3438],[-52.7334,2.3386],[-52.7359,2.3352],[-52.7402,2.3368],[-52.7491,2.3289],[-52.7712,2.3196],[-52.7731,2.315],[-52.7806,2.3165],[-52.7835,2.3098],[-52.7873,2.311],[-52.7926,2.3053],[-52.7969,2.3051],[-52.8037,2.2996],[-52.8067,2.3003],[-52.8186,2.2947],[-52.8346,2.2927],[-52.8369,2.2897],[-52.8418,2.2914],[-52.8429,2.2874],[-52.8394,2.2859],[-52.8382,2.2813],[-52.8529,2.279],[-52.8559,2.2816],[-52.854,2.2637],[-52.869,2.259],[-52.8773,2.2384],[-52.8873,2.2386],[-52.8862,2.2193],[-52.8921,2.2162],[-52.9045,2.1867],[-52.9128,2.1919],[-52.9206,2.1931],[-52.9213,2.1904],[-52.9296,2.1894],[-52.9346,2.1943],[-52.9391,2.1899],[-52.9383,2.1807],[-52.9412,2.1786],[-52.9568,2.173],[-52.9601,2.1754],[-52.975,2.1724],[-52.9804,2.1677],[-52.9878,2.1681],[-52.9885,2.1715],[-52.9921,2.1721],[-52.9986,2.1783],[-53.0123,2.1783],[-53.0331,2.1871],[-53.0386,2.1854],[-53.0422,2.1882],[-53.0519,2.1898],[-53.0625,2.1994],[-53.0624,2.2042],[-53.0694,2.2142],[-53.0797,2.2222],[-53.0938,2.2217],[-53.112,2.2247],[-53.128,2.2225],[-53.1306,2.2255],[-53.145,2.2194],[-53.1532,2.2212],[-53.1586,2.2207],[-53.1603,2.2171],[-53.1673,2.2187],[-53.1846,2.2112],[-53.1911,2.214],[-53.2097,2.2106],[-53.2109,2.2064],[-53.2159,2.2025],[-53.2242,2.2011],[-53.2331,2.2058],[-53.2356,2.2103],[-53.2448,2.2111],[-53.2492,2.2083],[-53.2487,2.2037],[-53.2561,2.2003],[-53.2631,2.1892],[-53.2742,2.1903],[-53.2779,2.1955],[-53.2753,2.201],[-53.2746,2.2169],[-53.2789,2.2187],[-53.2721,2.2221],[-53.2632,2.2195],[-53.2567,2.2307],[-53.259,2.2349],[-53.2559,2.2488],[-53.2519,2.2414],[-53.2424,2.2483],[-53.2385,2.2487],[-53.234,2.2563],[-53.2272,2.2548],[-53.2268,2.264],[-53.2376,2.27],[-53.256,2.2701],[-53.26,2.2743],[-53.2602,2.2858],[-53.273,2.2928],[-53.2814,2.305],[-53.3009,2.3071],[-53.3142,2.3234],[-53.3128,2.3282],[-53.3192,2.3451],[-53.3217,2.343],[-53.3209,2.3375],[-53.3278,2.3378],[-53.3319,2.3341],[-53.3331,2.346],[-53.3401,2.352],[-53.344,2.3514],[-53.3467,2.3466],[-53.3564,2.3479],[-53.361,2.344],[-53.3612,2.3406],[-53.3582,2.3378],[-53.3591,2.3273],[-53.3721,2.313],[-53.3802,2.3125],[-53.3869,2.3081],[-53.3881,2.3039],[-53.3946,2.3068],[-53.3992,2.305],[-53.4063,2.2899],[-53.4107,2.2873],[-53.4308,2.2886],[-53.431,2.2839],[-53.4448,2.2729],[-53.4449,2.2673],[-53.4474,2.2672],[-53.4506,2.2597],[-53.4581,2.2577],[-53.4611,2.2535],[-53.4689,2.252],[-53.4806,2.2565],[-53.484,2.2621],[-53.4898,2.2618],[-53.4916,2.257],[-53.4959,2.2605],[-53.5106,2.2569],[-53.5151,2.2611],[-53.524,2.259],[-53.5259,2.2529],[-53.5351,2.2517],[-53.5375,2.2565],[-53.5448,2.2555],[-53.5468,2.2525],[-53.5548,2.2572],[-53.56,2.2647],[-53.5668,2.2637],[-53.5675,2.2671],[-53.5744,2.2687],[-53.5818,2.2681],[-53.5816,2.2631],[-53.5866,2.2632],[-53.5896,2.2717],[-53.5978,2.2742],[-53.6005,2.2792],[-53.6045,2.2807],[-53.6153,2.2768],[-53.6175,2.2731],[-53.6236,2.2756],[-53.6232,2.2789],[-53.6309,2.2795],[-53.6345,2.2764],[-53.641,2.28],[-53.6452,2.2778],[-53.6569,2.2795],[-53.6576,2.2846],[-53.6519,2.2961],[-53.655,2.2986],[-53.6606,2.2954],[-53.6655,2.3021],[-53.6725,2.3017],[-53.6741,2.2975],[-53.6814,2.2966],[-53.6828,2.2928],[-53.6891,2.295],[-53.6904,2.3062],[-53.699,2.3112],[-53.7039,2.3111],[-53.706,2.3059],[-53.7105,2.306],[-53.7124,2.31],[-53.729,2.3109],[-53.7312,2.3054],[-53.7396,2.3058],[-53.7479,2.3157],[-53.7477,2.3198],[-53.7332,2.3224],[-53.7383,2.3325],[-53.726,2.3389],[-53.7208,2.35],[-53.7286,2.3479],[-53.7287,2.3525],[-53.7378,2.3606],[-53.7509,2.358],[-53.7505,2.3618],[-53.7373,2.3665],[-53.7361,2.3725],[-53.7419,2.3734],[-53.7425,2.3704],[-53.7512,2.3697],[-53.7563,2.3712],[-53.7577,2.3752],[-53.766,2.3756],[-53.7704,2.3742],[-53.7704,2.3711],[-53.7741,2.3688],[-53.7798,2.3704],[-53.785,2.3676],[-53.7833,2.3612],[-53.7969,2.3615],[-53.8,2.3541],[-53.8105,2.3523],[-53.8096,2.3411],[-53.8346,2.3323],[-53.8359,2.327],[-53.8318,2.3268],[-53.828,2.3229],[-53.8203,2.325],[-53.8152,2.3223],[-53.8133,2.3114],[-53.8183,2.3103],[-53.8234,2.3126],[-53.8256,2.3081],[-53.831,2.3082],[-53.8382,2.3022],[-53.8423,2.3046],[-53.8527,2.3037],[-53.8556,2.3133],[-53.8622,2.3104],[-53.8643,2.3045],[-53.8711,2.3086],[-53.8828,2.3088],[-53.8873,2.2967],[-53.8835,2.2874],[-53.8888,2.2824],[-53.889,2.2784],[-53.8852,2.2751],[-53.8893,2.2712],[-53.8965,2.273],[-53.8965,2.2677],[-53.9014,2.2675],[-53.9055,2.2607],[-53.9151,2.2623],[-53.9151,2.2693],[-53.9116,2.2717],[-53.9151,2.2782],[-53.9196,2.2781],[-53.9243,2.2742],[-53.9344,2.2811],[-53.9337,2.2694],[-53.9414,2.2593],[-53.9343,2.2476],[-53.9378,2.2423],[-53.9328,2.2371],[-53.9412,2.2327],[-53.94,2.2211],[-53.9443,2.2154],[-53.9526,2.2188],[-53.9563,2.217],[-53.9624,2.2193],[-53.9735,2.2062],[-53.9824,2.2093],[-53.9904,2.2091],[-54.006,2.1961],[-54.0159,2.1825],[-54.0235,2.1814],[-54.0251,2.1859],[-54.0292,2.185],[-54.0331,2.1884],[-54.0459,2.1864],[-54.0488,2.1891],[-54.0555,2.1896],[-54.0588,2.198],[-54.0656,2.1968],[-54.0665,2.1899],[-54.0732,2.1829],[-54.0724,2.1787],[-54.0829,2.1725],[-54.0815,2.1659],[-54.0879,2.1541],[-54.0844,2.1502],[-54.087,2.1417],[-54.0836,2.1401],[-54.0843,2.1362],[-54.0937,2.1398],[-54.0954,2.1321],[-54.0985,2.1315],[-54.1065,2.1213],[-54.1014,2.1118],[-54.1073,2.1113],[-54.1121,2.1176],[-54.1155,2.1175],[-54.1191,2.1217],[-54.1262,2.1241],[-54.1316,2.1205],[-54.1359,2.1216],[-54.1422,2.1131],[-54.1443,2.1204],[-54.1501,2.1195],[-54.1594,2.1235],[-54.1575,2.1271],[-54.1598,2.1294],[-54.1686,2.1295],[-54.169,2.1334],[-54.1741,2.1367],[-54.1732,2.1445],[-54.1755,2.1498],[-54.1819,2.1515],[-54.1857,2.1651],[-54.1837,2.1781],[-54.1872,2.1789],[-54.1903,2.1767],[-54.1904,2.1711],[-54.1995,2.1682],[-54.2107,2.1593],[-54.2156,2.1586],[-54.2241,2.1498],[-54.2283,2.1522],[-54.24,2.1518],[-54.2452,2.1561],[-54.2509,2.1533],[-54.2543,2.1558],[-54.2655,2.1455],[-54.2805,2.1464],[-54.3207,2.1593],[-54.3231,2.1544],[-54.3319,2.1552],[-54.3419,2.1518],[-54.3442,2.1608],[-54.3392,2.1693],[-54.3483,2.1737],[-54.3532,2.1706],[-54.3579,2.1751],[-54.3607,2.1749],[-54.3631,2.1797],[-54.3648,2.1869],[-54.361,2.1882],[-54.3623,2.1948],[-54.3547,2.2025],[-54.3623,2.2118],[-54.3697,2.2061],[-54.3803,2.2027],[-54.3836,2.2057],[-54.3906,2.2052],[-54.3974,2.197],[-54.4104,2.1987],[-54.4156,2.1948],[-54.4211,2.2001],[-54.4159,2.2079],[-54.419,2.2122],[-54.4267,2.2146],[-54.4312,2.2143],[-54.4417,2.2052],[-54.4489,2.2035],[-54.4568,2.2098],[-54.4609,2.2075],[-54.4727,2.2144],[-54.4772,2.2133],[-54.4763,2.2255],[-54.4781,2.2286],[-54.4829,2.2291],[-54.4855,2.2334],[-54.4958,2.2328],[-54.4987,2.2404],[-54.4943,2.2443],[-54.4959,2.2486],[-54.5053,2.255],[-54.5231,2.252],[-54.5271,2.2609],[-54.5355,2.2605],[-54.5482,2.2695],[-54.5488,2.272],[-54.5388,2.2725],[-54.5293,2.2756],[-54.5268,2.2788],[-54.5145,2.2779],[-54.5139,2.2808],[-54.5194,2.2893],[-54.5337,2.2925],[-54.5387,2.3055],[-54.5327,2.3169],[-54.539,2.3207],[-54.5391,2.3247],[-54.5431,2.3268],[-54.5546,2.3257],[-54.5572,2.3303],[-54.5604,2.3272],[-54.5756,2.3274],[-54.5876,2.3216],[-54.6016,2.3367],[-54.5967,2.3415],[-54.5931,2.3411],[-54.5937,2.3464],[-54.5905,2.352],[-54.5847,2.3495],[-54.5697,2.3542],[-54.5584,2.3517],[-54.5353,2.3414],[-54.5336,2.3336],[-54.5253,2.3331],[-54.5222,2.337],[-54.5064,2.3381],[-54.5056,2.3422],[-54.5116,2.36],[-54.5103,2.3714],[-54.505,2.3775],[-54.505,2.3911],[-54.5,2.4017],[-54.4856,2.4122],[-54.4839,2.4192],[-54.475,2.4318],[-54.4762,2.4354],[-54.4613,2.4354],[-54.4522,2.4321],[-54.4507,2.4352],[-54.4378,2.4303],[-54.4337,2.4354],[-54.4249,2.4382],[-54.4196,2.4369],[-54.4035,2.4579],[-54.3992,2.4677],[-54.3911,2.4672],[-54.3871,2.4704],[-54.3891,2.4807],[-54.3842,2.4863],[-54.3802,2.4853],[-54.3728,2.4913],[-54.3745,2.4966],[-54.37,2.509],[-54.3605,2.509],[-54.3606,2.5147],[-54.353,2.5186],[-54.3486,2.5247],[-54.3516,2.5294],[-54.3462,2.5324],[-54.3435,2.5433],[-54.3453,2.5628],[-54.3348,2.5653],[-54.3282,2.5745],[-54.3301,2.5776],[-54.3228,2.5941],[-54.3208,2.6092],[-54.3165,2.6134],[-54.3128,2.6134],[-54.3128,2.6175],[-54.3171,2.6195],[-54.3184,2.63],[-54.3127,2.6313],[-54.3077,2.6424],[-54.296,2.6515],[-54.291,2.6607],[-54.286,2.6638],[-54.281,2.6635],[-54.2744,2.676],[-54.2778,2.6835],[-54.2754,2.6859],[-54.2695,2.6852],[-54.2664,2.6888],[-54.2731,2.6933],[-54.2648,2.7232],[-54.2568,2.73],[-54.2448,2.7327],[-54.2455,2.7388],[-54.2334,2.7509],[-54.2289,2.7497],[-54.2229,2.754],[-54.2259,2.7589],[-54.2247,2.7628],[-54.218,2.7606],[-54.2164,2.7666],[-54.2082,2.7778],[-54.2108,2.7891],[-54.2082,2.7938],[-54.2034,2.7955],[-54.1979,2.8044],[-54.2039,2.8135],[-54.2055,2.8213],[-54.2027,2.8259],[-54.2081,2.8275],[-54.2078,2.8313],[-54.1975,2.8351],[-54.1952,2.831],[-54.186,2.8379],[-54.1833,2.8545],[-54.1795,2.8586],[-54.181,2.8647],[-54.1895,2.8679],[-54.1952,2.885],[-54.1921,2.8891],[-54.1915,2.8979],[-54.1857,2.9044],[-54.1853,2.9168],[-54.1913,2.9194],[-54.1911,2.9253],[-54.1794,2.9281],[-54.1724,2.9425],[-54.1766,2.944],[-54.1729,2.9476],[-54.176,2.9577],[-54.1716,2.9655],[-54.1645,2.9645],[-54.1607,2.9686],[-54.1627,2.9725],[-54.1769,2.9762],[-54.1814,2.9837],[-54.1812,2.9932],[-54.1856,2.9992],[-54.1824,3.0017],[-54.1781,3.0006],[-54.1703,3.0064],[-54.1717,3.0116],[-54.1696,3.0156],[-54.1765,3.0291],[-54.1787,3.0389],[-54.1821,3.0414],[-54.1822,3.0462],[-54.1851,3.0519],[-54.1923,3.0562],[-54.1946,3.0654],[-54.1837,3.0734],[-54.1743,3.0726],[-54.1734,3.0788],[-54.1754,3.0829],[-54.181,3.086],[-54.1811,3.0908],[-54.1737,3.1056],[-54.1745,3.1093],[-54.178,3.1095],[-54.1807,3.1248],[-54.1918,3.135],[-54.1956,3.1338],[-54.1985,3.1238],[-54.2114,3.1277],[-54.2141,3.1364],[-54.2012,3.142],[-54.2112,3.1437],[-54.2139,3.1502],[-54.2124,3.1552],[-54.2083,3.1538],[-54.2032,3.1576],[-54.2009,3.1634],[-54.2042,3.1674],[-54.2025,3.175],[-54.1989,3.1762],[-54.1966,3.1918],[-54.1888,3.2016],[-54.1891,3.2064],[-54.1753,3.2061],[-54.1726,3.2138],[-54.1676,3.2172],[-54.1667,3.2245],[-54.1628,3.2299],[-54.1537,3.2329],[-54.1516,3.2468],[-54.1454,3.2502],[-54.1364,3.266],[-54.1219,3.2719],[-54.118,3.2847],[-54.1104,3.2874],[-54.1005,3.3004],[-54.0935,3.2951],[-54.0809,3.2925],[-54.0699,3.3028],[-54.0643,3.3127],[-54.0636,3.3163],[-54.0672,3.3244],[-54.0631,3.3333],[-54.0622,3.3521],[-54.059,3.3595],[-54.0553,3.3601],[-54.0535,3.3634],[-54.0539,3.3711],[-54.0592,3.3784],[-54.0585,3.3855],[-54.0504,3.3856],[-54.0367,3.4028],[-54.0207,3.412],[-54.0122,3.4271],[-54.0191,3.4362],[-54.0201,3.4427],[-54.0163,3.4514],[-54.017,3.457],[-54.0081,3.4681],[-54.0084,3.5067],[-54,3.5242],[-54.0008,3.5276],[-54.0093,3.5356],[-54.0045,3.5606],[-53.9991,3.571],[-53.9871,3.5804],[-53.9806,3.6084],[-53.9894,3.615],[-53.9921,3.6259],[-54.0067,3.6486],[-54.0125,3.6508],[-54.0227,3.6468],[-54.0295,3.6312],[-54.0431,3.6353],[-54.0464,3.6332],[-54.051,3.6351],[-54.0522,3.64],[-54.0504,3.6528],[-54.0569,3.6601],[-54.0829,3.6744],[-54.0861,3.6927],[-54.079,3.7065],[-54.0791,3.7136],[-54.0848,3.7239],[-54.0957,3.7334],[-54.1008,3.7515],[-54.1131,3.7685],[-54.1148,3.7777],[-54.1219,3.7927],[-54.1304,3.8],[-54.1498,3.8042],[-54.1663,3.8052],[-54.1864,3.8003],[-54.1978,3.8055],[-54.2011,3.8111],[-54.2018,3.8233],[-54.1904,3.837],[-54.1894,3.8419],[-54.1919,3.8474],[-54.1965,3.8514],[-54.2313,3.8571],[-54.2369,3.8605],[-54.2503,3.8868],[-54.2534,3.8987],[-54.2491,3.904],[-54.2492,3.9089],[-54.2675,3.9187],[-54.2685,3.923],[-54.2744,3.9284],[-54.2761,3.9246],[-54.2827,3.9269],[-54.29,3.9358],[-54.2959,3.9485],[-54.3026,3.9835],[-54.3083,3.9887],[-54.3179,4.0148],[-54.3272,4.0233],[-54.3363,4.0371],[-54.3455,4.0452],[-54.3502,4.0432],[-54.355,4.0456],[-54.3576,4.0502],[-54.352,4.0732],[-54.3425,4.0896],[-54.3464,4.099],[-54.3444,4.1135],[-54.3364,4.1194],[-54.3232,4.1353],[-54.3231,4.1444],[-54.3255,4.1501],[-54.3409,4.1556],[-54.3477,4.1639],[-54.3578,4.1679],[-54.3664,4.1763],[-54.3873,4.1794],[-54.3958,4.2022],[-54.3961,4.2087],[-54.392,4.2187],[-54.3933,4.2243],[-54.3902,4.231],[-54.3884,4.2458],[-54.3824,4.2633],[-54.3833,4.2721],[-54.3917,4.2832],[-54.3945,4.3066],[-54.3912,4.3412],[-54.3873,4.354],[-54.3946,4.365],[-54.3993,4.3685],[-54.4088,4.3705],[-54.4136,4.3755],[-54.4161,4.3759],[-54.4365,4.3617],[-54.4419,4.3708],[-54.4361,4.3836],[-54.4362,4.3949],[-54.4333,4.4],[-54.4348,4.4075],[-54.4317,4.4102],[-54.4423,4.4379],[-54.434,4.4502],[-54.4322,4.4632],[-54.4406,4.4879],[-54.4388,4.4916],[-54.4404,4.4991],[-54.4501,4.5259],[-54.441,4.5355],[-54.4392,4.5416],[-54.4247,4.555],[-54.4235,4.5724],[-54.418,4.5786],[-54.4191,4.5864],[-54.4163,4.5902],[-54.4153,4.6065],[-54.4298,4.6274],[-54.4335,4.6293],[-54.438,4.6426],[-54.4335,4.6556],[-54.4269,4.6591],[-54.4237,4.6655],[-54.4278,4.6726],[-54.4263,4.6832],[-54.4319,4.6876],[-54.4335,4.6974],[-54.4273,4.715],[-54.4355,4.7248],[-54.4509,4.7233],[-54.4586,4.7258],[-54.4663,4.7399],[-54.4645,4.7603],[-54.46,4.7778],[-54.4603,4.7831],[-54.464,4.7884],[-54.4679,4.815],[-54.4656,4.8241],[-54.469,4.8634],[-54.4667,4.8725],[-54.4704,4.8801],[-54.469,4.8904],[-54.4714,4.8933],[-54.4782,4.895],[-54.4787,4.9036],[-54.4691,4.9151],[-54.4577,4.9236],[-54.4549,4.9303],[-54.4462,4.935],[-54.4436,4.9401],[-54.4399,4.9526],[-54.4396,4.9722],[-54.4433,4.9866],[-54.4363,4.9933],[-54.4379,5.0173],[-54.4256,5.034],[-54.4193,5.0517],[-54.4168,5.0605],[-54.418,5.0755],[-54.4156,5.0847],[-54.4074,5.0911],[-54.3932,5.0957],[-54.3754,5.1079],[-54.3684,5.1225],[-54.3712,5.1273],[-54.3649,5.138],[-54.3506,5.1439],[-54.3464,5.1617],[-54.3339,5.1763],[-54.3127,5.2129],[-54.3082,5.2253],[-54.286,5.2492],[-54.279,5.2625],[-54.2564,5.2805],[-54.2403,5.2864],[-54.2279,5.2988],[-54.2085,5.3033],[-54.2051,5.3113],[-54.1969,5.3188],[-54.1842,5.3234],[-54.1742,5.3418],[-54.1547,5.3564],[-54.1419,5.3706],[-54.1328,5.3847],[-54.127,5.4022],[-54.1175,5.4174],[-54.0929,5.4405],[-54.0638,5.4807],[-54.047,5.4919],[-54.0375,5.5101],[-54.0189,5.5215],[-54.0095,5.5454],[-54.0037,5.5731],[-54.0037,5.5816],[-54.0067,5.5893],[-54.005,5.6119],[-54.0149,5.6409],[-54.0149,5.6525],[-54.012,5.6635],[-53.9716,5.7342],[-53.9684,5.7452],[-53.9512,5.7435],[-53.9462,5.7467],[-53.9345,5.7466],[-53.8955,5.7331],[-53.8368,5.7324],[-53.7993,5.7239],[-53.7762,5.7131],[-53.7358,5.689],[-53.7347,5.6914],[-53.7221,5.6859],[-53.6972,5.6677],[-53.6892,5.6649],[-53.6617,5.6468],[-53.6511,5.644],[-53.6302,5.6332],[-53.5926,5.6083],[-53.5758,5.6075],[-53.5655,5.6005],[-53.5089,5.5781],[-53.4901,5.5728],[-53.4694,5.5653]]],[[[-52.5862,5.2848],[-52.594,5.2869],[-52.5926,5.2893],[-52.5866,5.289],[-52.5862,5.2848]]],[[[-52.5851,5.2903],[-52.5831,5.2965],[-52.58,5.295],[-52.5851,5.2903]]]]}},{"type":"Feature","properties":{"code":"976","nom":"Mayotte"},"geometry":{"type":"MultiPolygon","coordinates":[[[[45.041,-12.6469],[45.0413,-12.649],[45.0364,-12.6506],[45.0318,-12.656],[45.0288,-12.6551],[45.0305,-12.6516],[45.0289,-12.6495],[45.0236,-12.6463],[45.0188,-12.6472],[45.0183,-12.6441],[45.0266,-12.6366],[45.0408,-12.6467],[45.041,-12.6469]]],[[[45.028,-12.6567],[45.027,-12.6581],[45.0281,-12.6565],[45.028,-12.6567]]],[[[45.1382,-13.0034],[45.1376,-13.0053],[45.1384,-13.0012],[45.1383,-13.003],[45.1382,-13.0034]]],[[[45.2342,-12.8981],[45.2317,-12.9018],[45.2295,-12.8991],[45.2312,-12.8951],[45.2341,-12.898],[45.2342,-12.8981]]],[[[45.0665,-12.7597],[45.0663,-12.7599],[45.0661,-12.7599],[45.0664,-12.7596],[45.0665,-12.7595],[45.0665,-12.7597]]],[[[45.0898,-12.8465],[45.0897,-12.8469],[45.0896,-12.847],[45.0893,-12.8468],[45.0891,-12.8471],[45.0889,-12.8471],[45.0887,-12.8471],[45.0886,-12.8469],[45.0887,-12.8466],[45.0888,-12.8465],[45.0889,-12.8462],[45.0893,-12.8461],[45.0895,-12.846],[45.0897,-12.8464],[45.0898,-12.8465]]],[[[45.2188,-12.983],[45.216,-12.9863],[45.2173,-12.9808],[45.2192,-12.9824],[45.2188,-12.983]]],[[[45.1604,-12.9756],[45.1598,-12.9759],[45.1595,-12.9759],[45.1596,-12.9757],[45.1598,-12.9755],[45.1603,-12.9755],[45.1607,-12.9753],[45.1608,-12.9754],[45.1611,-12.9753],[45.1609,-12.9757],[45.1607,-12.9756],[45.1604,-12.9756]]],[[[45.1437,-12.92],[45.1416,-12.9226],[45.1391,-12.9214],[45.1416,-12.9173],[45.1437,-12.9197],[45.1437,-12.92]]],[[[45.2026,-12.9336],[45.2022,-12.9351],[45.1979,-12.9324],[45.2023,-12.9333],[45.2026,-12.9336]]],[[[45.2074,-12.9205],[45.2054,-12.9202],[45.2071,-12.9203],[45.2074,-12.9205]]],[[[45.2058,-12.9109],[45.2054,-12.9111],[45.2056,-12.9109],[45.2058,-12.9109]]],[[[45.2053,-12.9096],[45.2052,-12.9098],[45.205,-12.9098],[45.2052,-12.9096],[45.2053,-12.9096]]],[[[45.1281,-12.7246],[45.1285,-12.7248],[45.1284,-12.7249],[45.1279,-12.7248],[45.1278,-12.7246],[45.1277,-12.7244],[45.1279,-12.7243],[45.1281,-12.7246]]],[[[45.1738,-12.7183],[45.1735,-12.7185],[45.1733,-12.7188],[45.1731,-12.7187],[45.1734,-12.7183],[45.1737,-12.7182],[45.1738,-12.7183]]],[[[45.1278,-12.7233],[45.1277,-12.7235],[45.1276,-12.7234],[45.1277,-12.7231],[45.1278,-12.7233]]],[[[45.1956,-12.9069],[45.1956,-12.9072],[45.1955,-12.9072],[45.1954,-12.9069],[45.1956,-12.9069]]],[[[45.1182,-12.675],[45.1182,-12.6767],[45.1109,-12.6756],[45.1136,-12.6732],[45.1181,-12.6749],[45.1182,-12.675]]],[[[45.0593,-12.6767],[45.0551,-12.6767],[45.06,-12.6752],[45.0593,-12.6766],[45.0593,-12.6767]]],[[[45.049,-12.6718],[45.0461,-12.6718],[45.0489,-12.6715],[45.049,-12.6718]]],[[[45.1302,-12.6894],[45.1281,-12.6892],[45.1301,-12.6893],[45.1302,-12.6894]]],[[[45.1191,-12.6886],[45.1188,-12.6887],[45.1187,-12.6885],[45.119,-12.6885],[45.1191,-12.6886]]],[[[45.0515,-12.6755],[45.0516,-12.6758],[45.0514,-12.6758],[45.0513,-12.6756],[45.0515,-12.6755]]],[[[45.0998,-12.8019],[45.1016,-12.7967],[45.1125,-12.7954],[45.1092,-12.7911],[45.0977,-12.7924],[45.0983,-12.7844],[45.0961,-12.7868],[45.0939,-12.7845],[45.1018,-12.7806],[45.1025,-12.7665],[45.0945,-12.7663],[45.0949,-12.7703],[45.0924,-12.7714],[45.0873,-12.7645],[45.0808,-12.7639],[45.077,-12.7666],[45.0602,-12.7509],[45.0543,-12.7521],[45.0516,-12.7562],[45.0494,-12.7514],[45.0433,-12.7485],[45.0426,-12.744],[45.054,-12.7352],[45.0578,-12.727],[45.0553,-12.7233],[45.0398,-12.7222],[45.0433,-12.7212],[45.05,-12.7122],[45.0515,-12.7074],[45.0492,-12.7043],[45.0516,-12.7001],[45.0623,-12.7018],[45.0693,-12.6966],[45.0674,-12.6938],[45.07,-12.6952],[45.0726,-12.6919],[45.0729,-12.6853],[45.0665,-12.6811],[45.0761,-12.6837],[45.0811,-12.6814],[45.0834,-12.6788],[45.0826,-12.6712],[45.0856,-12.67],[45.086,-12.6664],[45.0934,-12.6628],[45.0926,-12.6572],[45.0969,-12.6588],[45.105,-12.6507],[45.1071,-12.6527],[45.1034,-12.6548],[45.1021,-12.6595],[45.1054,-12.6623],[45.0949,-12.665],[45.0883,-12.6704],[45.1046,-12.6764],[45.101,-12.6801],[45.1018,-12.6827],[45.1081,-12.683],[45.1093,-12.686],[45.1122,-12.6863],[45.1138,-12.6883],[45.1112,-12.6912],[45.1146,-12.6958],[45.1264,-12.7012],[45.1306,-12.7006],[45.1306,-12.704],[45.1259,-12.7022],[45.1226,-12.7057],[45.124,-12.7111],[45.1294,-12.7152],[45.1292,-12.7196],[45.1316,-12.7211],[45.1215,-12.7229],[45.1275,-12.7238],[45.1254,-12.7273],[45.1296,-12.7275],[45.1307,-12.7309],[45.1375,-12.7308],[45.1401,-12.7346],[45.1379,-12.7316],[45.142,-12.7336],[45.1444,-12.7311],[45.1409,-12.7279],[45.148,-12.7281],[45.1508,-12.7294],[45.1507,-12.7346],[45.1548,-12.7367],[45.1616,-12.7325],[45.1615,-12.7279],[45.1655,-12.7257],[45.1635,-12.7231],[45.1668,-12.7243],[45.1672,-12.7219],[45.1636,-12.7199],[45.1662,-12.7175],[45.17,-12.7257],[45.1766,-12.7301],[45.1832,-12.7269],[45.186,-12.7295],[45.1897,-12.7281],[45.1963,-12.7312],[45.2039,-12.7302],[45.209,-12.7353],[45.2142,-12.7324],[45.2118,-12.7376],[45.2133,-12.7409],[45.2211,-12.7445],[45.2257,-12.7437],[45.2285,-12.75],[45.2317,-12.7525],[45.2358,-12.7519],[45.235,-12.7567],[45.2398,-12.7612],[45.236,-12.7647],[45.2345,-12.7733],[45.2297,-12.7731],[45.2337,-12.7675],[45.2301,-12.7623],[45.2322,-12.7667],[45.2278,-12.768],[45.2294,-12.7697],[45.2256,-12.7743],[45.2337,-12.7761],[45.2328,-12.7797],[45.2383,-12.782],[45.2379,-12.7848],[45.2363,-12.7863],[45.2347,-12.7834],[45.2303,-12.784],[45.2307,-12.7865],[45.2275,-12.7859],[45.223,-12.7912],[45.2209,-12.7896],[45.2226,-12.7914],[45.2164,-12.7949],[45.2152,-12.8018],[45.2031,-12.8095],[45.2052,-12.8123],[45.2037,-12.8196],[45.1946,-12.8242],[45.1921,-12.8314],[45.1977,-12.8306],[45.1965,-12.833],[45.1893,-12.8386],[45.1852,-12.8384],[45.186,-12.8414],[45.1841,-12.8421],[45.1957,-12.8449],[45.1946,-12.8485],[45.1968,-12.8542],[45.1985,-12.8558],[45.2007,-12.8541],[45.2021,-12.8571],[45.2015,-12.8627],[45.2128,-12.8635],[45.21,-12.8689],[45.2133,-12.8731],[45.2221,-12.8719],[45.216,-12.8812],[45.2173,-12.8862],[45.2108,-12.8914],[45.1958,-12.8974],[45.1974,-12.8991],[45.1955,-12.9062],[45.1954,-12.9035],[45.1925,-12.9058],[45.1961,-12.9075],[45.1947,-12.9102],[45.1966,-12.9103],[45.1971,-12.9142],[45.205,-12.9201],[45.1865,-12.917],[45.1839,-12.9214],[45.185,-12.9244],[45.1796,-12.9258],[45.1761,-12.932],[45.1795,-12.9435],[45.1739,-12.9414],[45.1694,-12.943],[45.1688,-12.9496],[45.1751,-12.9563],[45.1769,-12.9654],[45.1905,-12.9712],[45.1932,-12.976],[45.2044,-12.9746],[45.2007,-12.9809],[45.1947,-12.9838],[45.1939,-12.9875],[45.1861,-12.984],[45.1808,-12.9843],[45.1775,-12.9907],[45.1782,-12.995],[45.1754,-12.9946],[45.1718,-12.9784],[45.1665,-12.9749],[45.1613,-12.9758],[45.1631,-12.9751],[45.1605,-12.9726],[45.156,-12.9803],[45.1579,-12.9887],[45.1491,-12.9998],[45.142,-12.9995],[45.1394,-12.9915],[45.1341,-12.9889],[45.1306,-12.9941],[45.1263,-12.9957],[45.125,-12.9799],[45.1243,-12.9821],[45.1196,-12.9802],[45.114,-12.982],[45.1088,-12.9939],[45.1056,-12.988],[45.1083,-12.9819],[45.1065,-12.9746],[45.1108,-12.9674],[45.1109,-12.9608],[45.1083,-12.9572],[45.1045,-12.9576],[45.0999,-12.9644],[45.0926,-12.9665],[45.084,-12.9615],[45.0788,-12.9623],[45.0951,-12.9532],[45.1011,-12.9456],[45.1043,-12.9328],[45.0979,-12.9249],[45.0871,-12.9299],[45.0889,-12.9251],[45.0867,-12.9221],[45.0834,-12.9221],[45.0774,-12.9053],[45.0716,-12.902],[45.0712,-12.8993],[45.0992,-12.8986],[45.1028,-12.9043],[45.1023,-12.9179],[45.1057,-12.9232],[45.1237,-12.9291],[45.1252,-12.9334],[45.137,-12.9381],[45.1383,-12.9359],[45.1492,-12.9336],[45.155,-12.9236],[45.149,-12.9079],[45.1441,-12.9047],[45.1454,-12.9003],[45.1405,-12.8947],[45.1422,-12.8987],[45.1405,-12.8977],[45.1385,-12.8908],[45.1321,-12.8888],[45.1315,-12.8843],[45.1237,-12.8818],[45.1112,-12.8636],[45.1043,-12.8632],[45.0929,-12.8531],[45.0939,-12.8505],[45.0987,-12.8495],[45.1025,-12.8435],[45.1154,-12.8444],[45.1213,-12.8397],[45.1012,-12.8346],[45.1032,-12.8207],[45.1064,-12.8196],[45.1063,-12.817],[45.1059,-12.8135],[45.0996,-12.8074],[45.0998,-12.8024],[45.0998,-12.8019]]],[[[45.2713,-12.7933],[45.2538,-12.7829],[45.2565,-12.7804],[45.2586,-12.7841],[45.2681,-12.7895],[45.2769,-12.7738],[45.2754,-12.7713],[45.2846,-12.7588],[45.2929,-12.768],[45.2939,-12.7757],[45.298,-12.7792],[45.2958,-12.7823],[45.299,-12.7818],[45.3,-12.7842],[45.297,-12.7836],[45.2942,-12.7876],[45.2966,-12.7957],[45.2928,-12.7993],[45.2872,-12.7995],[45.2846,-12.8038],[45.2843,-12.8109],[45.2876,-12.8173],[45.2799,-12.8125],[45.2787,-12.8049],[45.2715,-12.7935],[45.2713,-12.7933]]],[[[45.2378,-12.8098],[45.2399,-12.8107],[45.2394,-12.8142],[45.2328,-12.8168],[45.2306,-12.8136],[45.2312,-12.8071],[45.2356,-12.8046],[45.2377,-12.8095],[45.2378,-12.8098]]],[[[45.2691,-12.7804],[45.2656,-12.7806],[45.2692,-12.7804],[45.2691,-12.7804]]],[[[45.2072,-12.8097],[45.2055,-12.812],[45.2045,-12.8098],[45.2101,-12.807],[45.2074,-12.8095],[45.2072,-12.8097]]],[[[45.2707,-12.7775],[45.2708,-12.7778],[45.2708,-12.778],[45.2704,-12.7783],[45.2701,-12.7783],[45.2698,-12.7783],[45.2696,-12.7783],[45.2694,-12.7782],[45.2694,-12.7781],[45.2696,-12.7779],[45.2698,-12.7775],[45.2699,-12.7771],[45.2701,-12.777],[45.2703,-12.777],[45.2705,-12.7771],[45.2707,-12.7775]]]]}},{"type":"Feature","properties":{"code":"974","nom":"La Réunion"},"geometry":{"type":"MultiPolygon","coordinates":[[[[55.5689,-21.3767],[55.5684,-21.3774],[55.5673,-21.3773],[55.5682,-21.3759],[55.5689,-21.3767]]],[[[55.2542,-21.1097],[55.2309,-21.0909],[55.2209,-21.0774],[55.2218,-21.0584],[55.226,-21.0535],[55.2242,-21.0545],[55.2213,-21.0499],[55.2167,-21.0378],[55.2353,-21.0179],[55.2465,-21.0199],[55.2565,-21.0162],[55.2765,-21.0011],[55.2829,-20.9781],[55.2775,-20.955],[55.2805,-20.9488],[55.2815,-20.937],[55.2839,-20.9376],[55.2825,-20.9454],[55.2841,-20.9385],[55.2864,-20.9406],[55.2871,-20.9347],[55.2894,-20.9351],[55.2878,-20.9342],[55.2897,-20.9329],[55.2865,-20.9325],[55.2882,-20.9307],[55.2857,-20.9305],[55.2863,-20.9359],[55.2833,-20.9355],[55.2835,-20.9269],[55.2872,-20.9238],[55.2897,-20.923],[55.3043,-20.9291],[55.3183,-20.9283],[55.3194,-20.9312],[55.3145,-20.9331],[55.3248,-20.9354],[55.3251,-20.9296],[55.3217,-20.9264],[55.3239,-20.9285],[55.3305,-20.9279],[55.3445,-20.9222],[55.3521,-20.9114],[55.3599,-20.908],[55.3696,-20.8987],[55.3904,-20.8868],[55.395,-20.8818],[55.4211,-20.8744],[55.4404,-20.8766],[55.4512,-20.8717],[55.4696,-20.8843],[55.4896,-20.8857],[55.5029,-20.8823],[55.5367,-20.8914],[55.5354,-20.8928],[55.5416,-20.8947],[55.5506,-20.8954],[55.5588,-20.8915],[55.5737,-20.8936],[55.5818,-20.8975],[55.5924,-20.896],[55.6206,-20.9108],[55.6289,-20.9106],[55.6477,-20.9156],[55.6661,-20.9265],[55.6693,-20.932],[55.6832,-20.9443],[55.6968,-20.9658],[55.7007,-20.9786],[55.7005,-21.0053],[55.7028,-21.018],[55.7078,-21.028],[55.7183,-21.0323],[55.7265,-21.0453],[55.7323,-21.0499],[55.7314,-21.0601],[55.7387,-21.0715],[55.7558,-21.0891],[55.7626,-21.1006],[55.7714,-21.107],[55.78,-21.122],[55.786,-21.1257],[55.7916,-21.1243],[55.8001,-21.1273],[55.8098,-21.1373],[55.8259,-21.1436],[55.828,-21.1526],[55.835,-21.1604],[55.8331,-21.1714],[55.8366,-21.1834],[55.8319,-21.1865],[55.8258,-21.1861],[55.8247,-21.2033],[55.8141,-21.2143],[55.8125,-21.222],[55.8085,-21.2275],[55.8081,-21.2388],[55.8016,-21.2597],[55.8038,-21.2789],[55.8083,-21.2873],[55.8056,-21.2925],[55.8038,-21.3098],[55.8062,-21.3263],[55.8092,-21.3308],[55.8073,-21.3368],[55.7969,-21.3506],[55.7752,-21.3655],[55.7564,-21.363],[55.7505,-21.3678],[55.7271,-21.3698],[55.7088,-21.3766],[55.6816,-21.3747],[55.6709,-21.3838],[55.6592,-21.3828],[55.6468,-21.3894],[55.6418,-21.3844],[55.6334,-21.3825],[55.6093,-21.3871],[55.5981,-21.3786],[55.5896,-21.3762],[55.5867,-21.3717],[55.572,-21.376],[55.5555,-21.3712],[55.5511,-21.3745],[55.5495,-21.3706],[55.5386,-21.364],[55.5236,-21.3612],[55.501,-21.3506],[55.4881,-21.3502],[55.4841,-21.3524],[55.4787,-21.3436],[55.4699,-21.3446],[55.4595,-21.3411],[55.4542,-21.3347],[55.4548,-21.3316],[55.449,-21.3284],[55.4301,-21.3264],[55.4196,-21.3215],[55.4115,-21.3145],[55.4063,-21.3053],[55.3907,-21.2922],[55.367,-21.2845],[55.3408,-21.2816],[55.3353,-21.2778],[55.3322,-21.273],[55.3346,-21.2701],[55.3306,-21.2587],[55.3201,-21.2527],[55.3211,-21.2492],[55.3108,-21.2401],[55.293,-21.2298],[55.2852,-21.2073],[55.2805,-21.2025],[55.2827,-21.2011],[55.2874,-21.183],[55.2869,-21.1609],[55.2813,-21.1533],[55.2726,-21.1504],[55.2702,-21.1436],[55.271,-21.1317],[55.2532,-21.1139],[55.2547,-21.1109],[55.2542,-21.1097]]]]}}]}
