{"type":"FeatureCollection","features":[{"type":"Feature","properties":{"NAME":"Switzerland","NAME_FR":"Suisse"},"geometry":{"type":"Polygon","coordinates":[[[10.4538,46.8644],[10.4485,46.8322],[10.4449,46.8232],[10.4172,46.7989],[10.4191,46.784],[10.4262,46.7694],[10.4287,46.7556],[10.4166,46.743],[10.3997,46.7355],[10.3956,46.7264],[10.3966,46.715],[10.3944,46.7008],[10.3848,46.689],[10.3739,46.6819],[10.3692,46.6724],[10.3775,46.6533],[10.3956,46.6388],[10.4382,46.6357],[10.4591,46.6236],[10.4666,46.6043],[10.4659,46.5785],[10.4579,46.5537],[10.444,46.5377],[10.4259,46.5353],[10.3543,46.5483],[10.3195,46.546],[10.2954,46.5511],[10.2759,46.5655],[10.2347,46.5753],[10.2303,46.5862],[10.2357,46.6067],[10.2338,46.618],[10.2179,46.627],[10.1921,46.6268],[10.0878,46.6044],[10.0712,46.5644],[10.0413,46.5419],[10.0328,46.533],[10.0312,46.5038],[10.0269,46.4932],[10.0281,46.4839],[10.0353,46.4711],[10.044,46.467],[10.0263,46.4463],[10.0421,46.4327],[10.0714,46.4248],[10.1162,46.4188],[10.1334,46.414],[10.1408,46.4029],[10.1332,46.3811],[10.105,46.3614],[10.0975,46.3516],[10.0924,46.3381],[10.0918,46.329],[10.1049,46.3094],[10.1461,46.2803],[10.1589,46.2624],[10.1458,46.2433],[10.1179,46.2311],[10.0757,46.22],[10.0427,46.2205],[10.0418,46.2431],[10.0317,46.2601],[9.9922,46.2844],[9.9776,46.2981],[9.971,46.32],[9.9706,46.3398],[9.964,46.3561],[9.939,46.3675],[9.9184,46.3712],[9.899,46.3722],[9.8554,46.367],[9.7888,46.3433],[9.7681,46.3386],[9.7552,46.3405],[9.7309,46.3507],[9.7201,46.3509],[9.7093,46.3424],[9.7073,46.331],[9.7084,46.3117],[9.6931,46.2971],[9.6743,46.2918],[9.5597,46.2927],[9.5365,46.2986],[9.5153,46.3086],[9.5026,46.3207],[9.4826,46.3568],[9.4444,46.3753],[9.4424,46.3809],[9.4438,46.3961],[9.4379,46.492],[9.4346,46.4983],[9.4268,46.4971],[9.4107,46.4889],[9.4038,46.4825],[9.3955,46.4694],[9.3846,46.4664],[9.3771,46.4687],[9.3516,46.4855],[9.3508,46.4979],[9.331,46.5015],[9.2823,46.4974],[9.2632,46.4851],[9.2458,46.461],[9.238,46.4365],[9.2476,46.423],[9.2609,46.4167],[9.2629,46.4066],[9.2604,46.3797],[9.2738,46.3443],[9.2752,46.3314],[9.269,46.3094],[9.2397,46.267],[9.2248,46.2312],[9.2157,46.2211],[9.2042,46.2136],[9.1813,46.2041],[9.1711,46.1826],[9.1632,46.1723],[9.0906,46.1382],[9.0721,46.1189],[9.0682,46.106],[9.0703,46.0834],[9.0671,46.0711],[9.0592,46.0618],[9.0277,46.0531],[9.0021,46.0393],[8.9978,46.0279],[9.0156,45.9931],[8.9827,45.972],[8.9805,45.9644],[8.9934,45.9543],[9.0017,45.9361],[9.0108,45.9267],[9.0205,45.9228],[9.0423,45.9197],[9.0517,45.9155],[9.0631,45.899],[9.0593,45.882],[9.0344,45.8481],[9.0024,45.8207],[8.9724,45.8246],[8.9396,45.8348],[8.9,45.8264],[8.9037,45.8418],[8.9138,45.8661],[8.9121,45.8834],[8.8981,45.9096],[8.871,45.9471],[8.8577,45.9571],[8.8004,45.9785],[8.7851,45.9823],[8.7679,45.9831],[8.791,46.0187],[8.8196,46.0429],[8.8344,46.0664],[8.8089,46.0897],[8.7939,46.0934],[8.7471,46.0944],[8.7395,46.0981],[8.7322,46.1074],[8.7239,46.1095],[8.6951,46.0952],[8.6775,46.0958],[8.6309,46.1147],[8.6018,46.1228],[8.5387,46.1876],[8.5103,46.2079],[8.4565,46.2248],[8.4381,46.2354],[8.4272,46.2514],[8.4232,46.2758],[8.4266,46.3016],[8.4429,46.3534],[8.4463,46.3822],[8.4458,46.4124],[8.4416,46.4349],[8.4279,46.4487],[8.3992,46.4522],[8.3434,46.4439],[8.3163,46.4337],[8.295,46.418],[8.2866,46.4054],[8.297,46.3976],[8.2975,46.3875],[8.2915,46.3784],[8.2815,46.3701],[8.2417,46.3541],[8.1926,46.3092],[8.1719,46.2992],[8.1285,46.2925],[8.1069,46.2855],[8.0873,46.2718],[8.0773,46.262],[8.0731,46.2536],[8.0999,46.2356],[8.1295,46.196],[8.1323,46.1594],[8.1106,46.127],[8.0669,46.1006],[8.0354,46.0965],[8.0253,46.0911],[8.0182,46.0809],[8.0107,46.0297],[7.9984,46.0106],[7.9858,45.9993],[7.9691,45.9931],[7.8982,45.9819],[7.8838,45.9739],[7.8729,45.9594],[7.8702,45.9404],[7.8496,45.9397],[7.8437,45.9192],[7.8312,45.9145],[7.8076,45.9185],[7.7801,45.9181],[7.732,45.9304],[7.7063,45.9257],[7.694,45.9287],[7.6737,45.9503],[7.6587,45.96],[7.643,45.9663],[7.5411,45.9841],[7.5244,45.9781],[7.5037,45.9567],[7.4827,45.9549],[7.453,45.9459],[7.3938,45.9157],[7.3618,45.9078],[7.2867,45.9134],[7.2735,45.9103],[7.2454,45.8981],[7.1837,45.8805],[7.1535,45.8765],[7.1209,45.8761],[7.0902,45.8805],[7.0669,45.8902],[7.0221,45.9253],[7.0152,45.9333],[6.9877,45.9931],[6.9151,46.0486],[6.8924,46.0556],[6.884,46.0532],[6.8692,46.0441],[6.8597,46.045],[6.8509,46.0496],[6.8531,46.0761],[6.8513,46.086],[6.8486,46.085],[6.8682,46.1047],[6.8692,46.1123],[6.8539,46.1226],[6.7743,46.1348],[6.7657,46.1516],[6.7749,46.1859],[6.7922,46.2217],[6.8277,46.2695],[6.8049,46.2966],[6.7695,46.3227],[6.7504,46.3455],[6.7557,46.3571],[6.7821,46.3785],[6.7892,46.3952],[6.7871,46.4142],[6.7777,46.4241],[6.7627,46.4293],[6.6137,46.4559],[6.547,46.4574],[6.4829,46.4486],[6.3977,46.4082],[6.3652,46.4024],[6.3324,46.4014],[6.3016,46.3945],[6.2691,46.375],[6.2195,46.3291],[6.2141,46.3155],[6.2376,46.2679],[6.2418,46.2637],[6.2523,46.2599],[6.269,46.2652],[6.276,46.2631],[6.2812,46.2401],[6.2554,46.2211],[6.1914,46.1917],[6.1403,46.1502],[6.1079,46.1386],[6.0739,46.1492],[6.0283,46.1479],[5.9829,46.1404],[5.9588,46.1305],[5.9798,46.1622],[5.9829,46.1708],[5.9652,46.1862],[5.9548,46.1999],[5.9585,46.212],[5.9829,46.2227],[6.0429,46.2431],[6.0677,46.2416],[6.0897,46.2464],[6.094,46.253],[6.0936,46.2731],[6.1007,46.3014],[6.1364,46.3593],[6.1351,46.3704],[6.1229,46.3855],[6.1082,46.3965],[6.0542,46.4194],[6.0657,46.427],[6.0676,46.4336],[6.0648,46.4511],[6.0602,46.4599],[6.0602,46.465],[6.0642,46.4711],[6.0755,46.4796],[6.1104,46.5208],[6.1457,46.5516],[6.1215,46.5703],[6.1184,46.5835],[6.1319,46.5956],[6.2663,46.6804],[6.3379,46.7074],[6.3742,46.7336],[6.4074,46.7457],[6.4179,46.7511],[6.4292,46.7608],[6.433,46.7691],[6.4326,46.786],[6.4199,46.7965],[6.4171,46.8022],[6.4343,46.8395],[6.4468,46.8577],[6.4484,46.8716],[6.4452,46.8826],[6.4319,46.9],[6.4278,46.9091],[6.4426,46.9442],[6.4911,46.9634],[6.5987,46.9865],[6.6654,47.0213],[6.6883,47.0438],[6.6763,47.0624],[6.6897,47.0783],[6.6991,47.0846],[6.7242,47.0908],[6.7279,47.0971],[6.746,47.1039],[6.7448,47.1211],[6.7748,47.1282],[6.8403,47.1695],[6.8593,47.1909],[6.8883,47.2113],[6.9562,47.2452],[6.9522,47.27],[6.9586,47.2906],[6.9774,47.3037],[6.9919,47.306],[7.0065,47.3194],[7.0366,47.3295],[7.0443,47.3405],[7.0339,47.3507],[7.004,47.3681],[6.9856,47.3621],[6.8666,47.3542],[6.8716,47.367],[6.884,47.3826],[6.8988,47.3957],[6.9245,47.406],[6.9261,47.4249],[6.9523,47.4288],[6.9685,47.4352],[6.9834,47.4438],[6.991,47.4522],[6.9861,47.4641],[6.9758,47.478],[6.9733,47.4891],[7.0098,47.4992],[7.0189,47.4977],[7.028,47.4929],[7.0539,47.4904],[7.1037,47.4963],[7.1537,47.4864],[7.1808,47.4883],[7.1626,47.4599],[7.1683,47.4436],[7.19,47.4347],[7.2194,47.4285],[7.2303,47.419],[7.2381,47.4168],[7.2826,47.4289],[7.3091,47.4327],[7.3785,47.4306],[7.4063,47.4382],[7.4261,47.4558],[7.4293,47.4651],[7.4276,47.4707],[7.4144,47.484],[7.4143,47.4902],[7.426,47.4925],[7.4545,47.4832],[7.4674,47.4819],[7.4845,47.4929],[7.4858,47.4988],[7.4778,47.5077],[7.4756,47.5117],[7.4769,47.5149],[7.4827,47.517],[7.4931,47.5155],[7.5011,47.5173],[7.5055,47.523],[7.5052,47.533],[7.4827,47.5423],[7.5263,47.5665],[7.5503,47.5755],[7.637,47.595],[7.6597,47.5966],[7.6465,47.5715],[7.6359,47.5646],[7.6097,47.5647],[7.6614,47.5462],[7.6834,47.5443],[7.7667,47.556],[7.7855,47.5632],[7.8015,47.5761],[7.8197,47.5953],[7.8337,47.5905],[7.8982,47.5878],[7.9043,47.5836],[7.9122,47.5606],[8.0423,47.5606],[8.0872,47.5674],[8.097,47.5719],[8.1139,47.5878],[8.1438,47.6001],[8.1621,47.6038],[8.179,47.6158],[8.233,47.622],[8.2511,47.622],[8.2886,47.6158],[8.2939,47.6115],[8.3063,47.5922],[8.3162,47.5878],[8.3541,47.581],[8.4181,47.5808],[8.4489,47.5843],[8.4618,47.6061],[8.4924,47.6198],[8.5224,47.6219],[8.5378,47.6121],[8.5607,47.5894],[8.5741,47.5924],[8.5806,47.6002],[8.5825,47.6216],[8.5781,47.6335],[8.5803,47.639],[8.5936,47.6426],[8.5951,47.6348],[8.6016,47.6326],[8.6073,47.6563],[8.5682,47.6629],[8.5197,47.6574],[8.4761,47.6404],[8.4583,47.6399],[8.412,47.661],[8.3913,47.6655],[8.3977,47.6763],[8.391,47.6921],[8.3921,47.6995],[8.4019,47.7071],[8.4273,47.7165],[8.4379,47.7232],[8.4501,47.7505],[8.4636,47.7639],[8.4715,47.7671],[8.5365,47.7741],[8.5516,47.7793],[8.5423,47.795],[8.5582,47.8012],[8.5831,47.8002],[8.6016,47.7946],[8.6076,47.7623],[8.6174,47.7573],[8.6298,47.7628],[8.635,47.7846],[8.6441,47.791],[8.657,47.7881],[8.6819,47.7587],[8.7131,47.7574],[8.7198,47.7473],[8.7037,47.73],[8.7004,47.7235],[8.7047,47.7153],[8.7126,47.7087],[8.7171,47.6946],[8.7699,47.6951],[8.7617,47.7013],[8.7707,47.7209],[8.7976,47.72],[8.8302,47.7072],[8.8561,47.6907],[8.8377,47.6878],[8.8378,47.6808],[8.8817,47.6561],[8.9062,47.6518],[8.9454,47.6543],[8.9818,47.6622],[8.9977,47.6738],[9.0166,47.6789],[9.1281,47.6704],[9.1834,47.6704],[9.1969,47.6561],[9.2344,47.6562],[9.2732,47.6501],[9.5475,47.5345],[9.555,47.5109],[9.5845,47.4807],[9.6217,47.4692],[9.6503,47.4521],[9.6495,47.4097],[9.6398,47.3945],[9.601,47.3613],[9.5874,47.3278],[9.5533,47.2999],[9.5046,47.2437],[9.4874,47.21],[9.485,47.1763],[9.4926,47.1598],[9.5119,47.1294],[9.5124,47.108],[9.5029,47.0947],[9.4759,47.0732],[9.477,47.0639],[9.5606,47.0524],[9.5812,47.0569],[9.5999,47.0535],[9.6523,47.0579],[9.6691,47.0562],[9.858,47.0155],[9.8563,47.0041],[9.8606,47.0016],[9.8668,47.0019],[9.8706,46.9988],[9.8608,46.9492],[9.8624,46.9398],[9.8751,46.9274],[9.8999,46.9144],[10.0069,46.8908],[10.0456,46.8656],[10.0681,46.8566],[10.1113,46.8471],[10.132,46.8466],[10.1578,46.8516],[10.2014,46.8668],[10.2117,46.877],[10.2199,46.9058],[10.2351,46.9233],[10.2513,46.9254],[10.2708,46.9219],[10.2957,46.9227],[10.2962,46.9414],[10.3137,46.9643],[10.3389,46.9841],[10.3734,46.9963],[10.3844,46.9932],[10.3947,46.9854],[10.4156,46.9624],[10.4496,46.9439],[10.4585,46.9366],[10.4638,46.9197],[10.4514,46.8858],[10.4538,46.8644]]]}}]}
